{"type":"FeatureCollection","features":[{"type":"Feature","geometry":{"type":"MultiPolygon","coordinates":[[[[-74.04387,40.69019],[-74.04365,40.68876],[-74.04481,40.6886],[-74.04626,40.68931],[-74.0472,40.69044],[-74.04598,40.69111],[-74.04387,40.69019]]],[[[-74.01676,40.69333],[-74.0142,40.69283],[-74.0122,40.69115],[-74.01232,40.68927],[-74.01315,40.68813],[-74.01487,40.68725],[-74.01604,40.68734],[-74.02276,40.68428],[-74.02465,40.68398],[-74.02604,40.68453],[-74.02659,40.68524],[-74.02615,40.68642],[-74.0202,40.69203],[-74.01943,40.69321],[-74.01676,40.69333]]],[[[-73.99932,40.71757],[-74.00082,40.71531],[-74.00021,40.71426],[-74.00087,40.71304],[-74.00048,40.71099],[-74.00148,40.70973],[-73.99921,40.70797],[-74.00121,40.70688],[-74.00059,40.70541],[-74.00143,40.70486],[-74.00332,40.70562],[-74.00932,40.70193],[-74.01104,40.70147],[-74.01109,40.70088],[-74.01348,40.70046],[-74.01515,40.70084],[-74.01743,40.70302],[-74.01759,40.70419],[-74.01843,40.70415],[-74.01931,40.70608],[-74.0182,40.70784],[-74.01887,40.70805],[-74.01781,40.71233],[-74.01665,40.71216],[-74.01632,40.71342],[-74.01759,40.71359],[-74.0167,40.71862],[-74.0132,40.71832],[-74.01293,40.71975],[-74.01343,40.72],[-74.01637,40.72038],[-74.01632,40.72071],[-74.01298,40.72034],[-74.01254,40.72151],[-74.01165,40.72587],[-74.01515,40.72658],[-74.01159,40.72617],[-74.01082,40.72579],[-73.99932,40.71757]]]]},"properties":{"cd":101,"name":"Financial District (CD1)","pm25":7.55,"no2":20.45}},{"type":"Feature","geometry":{"type":"Polygon","coordinates":[[[-74.00915,40.74248],[-74.0087,40.74235],[-73.99682,40.73736],[-73.98993,40.73443],[-73.98987,40.73355],[-73.99132,40.72776],[-73.99354,40.72164],[-73.99482,40.71845],[-73.99604,40.71623],[-73.99932,40.71757],[-74.01082,40.72579],[-74.01159,40.72617],[-74.01515,40.72658],[-74.01154,40.72646],[-74.01137,40.72822],[-74.01437,40.72847],[-74.01404,40.73069],[-74.01115,40.73044],[-74.01037,40.73916],[-74.01159,40.73929],[-74.01137,40.74072],[-74.00965,40.74063],[-74.00943,40.74113],[-74.01137,40.74181],[-74.01082,40.7426],[-74.00915,40.74248]]]},"properties":{"cd":102,"name":"Greenwich Village and Soho (CD2)","pm25":8.77,"no2":19.79}},{"type":"Feature","geometry":{"type":"Polygon","coordinates":[[[-73.98876,40.73396],[-73.97565,40.72847],[-73.97165,40.72663],[-73.97299,40.72067],[-73.97376,40.71811],[-73.97493,40.7151],[-73.97643,40.71191],[-73.97826,40.71048],[-73.98126,40.71023],[-73.98126,40.70981],[-73.98815,40.70914],[-73.98876,40.70998],[-73.99726,40.70872],[-73.99921,40.70797],[-74.00148,40.70973],[-74.00048,40.71099],[-74.00087,40.71304],[-74.00021,40.71426],[-74.00082,40.71531],[-73.99932,40.71757],[-73.99604,40.71623],[-73.99482,40.71845],[-73.99354,40.72164],[-73.99132,40.72776],[-73.98987,40.73355],[-73.98993,40.73443],[-73.98876,40.73396]]]},"properties":{"cd":103,"name":"Lower East Side and Chinatown (CD3)","pm25":7.65,"no2":17.88}},{"type":"Feature","geometry":{"type":"Polygon","coordinates":[[[-73.99393,40.77317],[-73.99332,40.77283],[-73.98476,40.76923],[-73.98432,40.76986],[-73.9821,40.76889],[-73.98165,40.76839],[-73.98149,40.76789],[-73.9821,40.76776],[-73.9971,40.74721],[-73.99143,40.74478],[-73.99682,40.73736],[-74.0087,40.74235],[-74.00915,40.74248],[-74.00959,40.74327],[-74.01209,40.74352],[-74.01204,40.74394],[-74.00954,40.74369],[-74.0087,40.74487],[-74.00954,40.74529],[-74.00904,40.7478],[-74.00993,40.74893],[-74.00909,40.75036],[-74.00759,40.7543],[-74.00543,40.75732],[-74.00504,40.75837],[-74.00698,40.75917],[-74.00654,40.75988],[-74.00448,40.75908],[-74.00315,40.76109],[-74.00232,40.76156],[-74.00098,40.7634],[-73.99993,40.7634],[-73.99915,40.7642],[-74.00226,40.76554],[-74.00204,40.76587],[-73.99887,40.76457],[-73.99826,40.76558],[-74.00154,40.76696],[-74.00132,40.76726],[-73.99804,40.76587],[-73.99737,40.76684],[-74.00065,40.76822],[-74.00037,40.76852],[-73.99715,40.76713],[-73.99648,40.7681],[-73.9966,40.76944],[-73.99904,40.77044],[-73.99876,40.77082],[-73.99632,40.76982],[-73.99393,40.77317]]]},"properties":{"cd":104,"name":"Clinton and Chelsea (CD4)","pm25":8.09,"no2":20.78}},{"type":"Feature","geometry":{"type":"Polygon","coordinates":[[[-73.97304,40.76428],[-73.96821,40.76223],[-73.97699,40.75015],[-73.98021,40.75153],[-73.98293,40.74776],[-73.97971,40.74642],[-73.98521,40.73883],[-73.98649,40.73937],[-73.9876,40.73749],[-73.98654,40.73707],[-73.98876,40.73396],[-73.98993,40.73443],[-73.99682,40.73736],[-73.99143,40.74478],[-73.9971,40.74721],[-73.9821,40.76776],[-73.98149,40.76789],[-73.97304,40.76428]]]},"properties":{"cd":105,"name":"Midtown (CD5)","pm25":9.71,"no2":24.57}},{"type":"Feature","geometry":{"type":"Polygon","coordinates":[[[-73.97165,40.72663],[-73.97565,40.72847],[-73.98876,40.73396],[-73.98654,40.73707],[-73.9876,40.73749],[-73.98649,40.73937],[-73.98521,40.73883],[-73.97971,40.74642],[-73.98293,40.74776],[-73.98021,40.75153],[-73.97699,40.75015],[-73.96821,40.76223],[-73.95877,40.75828],[-73.96066,40.75594],[-73.96166,40.75514],[-73.96532,40.75103],[-73.97077,40.74441],[-73.97188,40.74273],[-73.97265,40.73921],[-73.97249,40.73581],[-73.97443,40.7364],[-73.97443,40.73531],[-73.97343,40.73128],[-73.97149,40.72927],[-73.97165,40.72663]]]},"properties":{"cd":106,"name":"Stuyvesant Town and Turtle Bay (CD6)","pm25":7.9,"no2":20.72}},{"type":"Feature","geometry":{"type":"Polygon","coordinates":[[[-73.95966,40.80114],[-73.95816,40.80059],[-73.98165,40.76839],[-73.9821,40.76889],[-73.98432,40.76986],[-73.98476,40.76923],[-73.99332,40.77283],[-73.99393,40.77317],[-73.99093,40.77757],[-73.99037,40.77757],[-73.98887,40.77971],[-73.98799,40.78177],[-73.98054,40.79246],[-73.9711,40.80579],[-73.96671,40.80416],[-73.95966,40.80114]]]},"properties":{"cd":107,"name":"Upper West Side (CD7)","pm25":6.53,"no2":18.85}},{"type":"Feature","geometry":{"type":"MultiPolygon","coordinates":[[[[-73.94182,40.76906],[-73.94288,40.76831],[-73.94482,40.76583],[-73.94943,40.76055],[-73.9521,40.75799],[-73.95255,40.75711],[-73.95793,40.75212],[-73.96099,40.74977],[-73.96071,40.7512],[-73.95949,40.75296],[-73.95843,40.75397],[-73.95366,40.7595],[-73.9521,40.76084],[-73.94999,40.76365],[-73.9491,40.76428],[-73.94471,40.76973],[-73.9421,40.77204],[-73.94088,40.77237],[-73.94021,40.77112],[-73.9411,40.7694],[-73.94182,40.76906]]],[[[-73.94355,40.7829],[-73.94388,40.78151],[-73.94344,40.77975],[-73.94199,40.77619],[-73.94294,40.77468],[-73.94488,40.77258],[-73.94638,40.77128],[-73.94866,40.76885],[-73.95005,40.76701],[-73.95443,40.76218],[-73.95877,40.75828],[-73.96821,40.76223],[-73.97304,40.76428],[-73.95577,40.78793],[-73.94405,40.78298],[-73.94355,40.7829]]]]},"properties":{"cd":108,"name":"Upper East Side (CD8)","pm25":6.8,"no2":18.94}},{"type":"Feature","geometry":{"type":"Polygon","coordinates":[[[-73.94016,40.83036],[-73.93971,40.82932],[-73.94382,40.82365],[-73.94294,40.82328],[-73.94516,40.82089],[-73.9461,40.82126],[-73.94866,40.81569],[-73.95032,40.81317],[-73.9521,40.81145],[-73.9536,40.80948],[-73.95499,40.81007],[-73.95771,40.8063],[-73.95827,40.80525],[-73.95827,40.80311],[-73.95966,40.80114],[-73.96671,40.80416],[-73.9711,40.80579],[-73.96888,40.80877],[-73.96665,40.81217],[-73.96338,40.81669],[-73.95793,40.82277],[-73.95954,40.8237],[-73.95727,40.82713],[-73.95632,40.82793],[-73.95504,40.82743],[-73.9536,40.82911],[-73.95021,40.8343],[-73.9496,40.83443],[-73.94016,40.83036]]]},"properties":{"cd":109,"name":"Morningside Heights and Hamilton Heights (CD9)","pm25":6.61,"no2":17.5}},{"type":"Feature","geometry":{"type":"Polygon","coordinates":[[[-73.93444,40.83598],[-73.93494,40.83523],[-73.93516,40.83288],[-73.93444,40.82705],[-73.93399,40.81971],[-73.93383,40.81833],[-73.93488,40.81653],[-73.94277,40.80575],[-73.94432,40.80638],[-73.94616,40.80386],[-73.9446,40.80323],[-73.94921,40.79686],[-73.95816,40.80059],[-73.95966,40.80114],[-73.95827,40.80311],[-73.95827,40.80525],[-73.95771,40.8063],[-73.95499,40.81007],[-73.9536,40.80948],[-73.9521,40.81145],[-73.95032,40.81317],[-73.94866,40.81569],[-73.9461,40.82126],[-73.94516,40.82089],[-73.94294,40.82328],[-73.94382,40.82365],[-73.93971,40.82932],[-73.94016,40.83036],[-73.9386,40.83288],[-73.93494,40.83577],[-73.93444,40.83598]]]},"properties":{"cd":110,"name":"Central Harlem (CD10)","pm25":6.66,"no2":17.16}},{"type":"Feature","geometry":{"type":"MultiPolygon","coordinates":[[[[-73.92133,40.80084],[-73.92033,40.79938],[-73.9166,40.79787],[-73.91544,40.79707],[-73.91383,40.79451],[-73.91377,40.79384],[-73.91516,40.792],[-73.91849,40.78944],[-73.92188,40.78571],[-73.92283,40.78357],[-73.92449,40.78231],[-73.92571,40.78218],[-73.92733,40.78109],[-73.92849,40.78101],[-73.93066,40.78227],[-73.93505,40.78302],[-73.93605,40.7842],[-73.93571,40.78567],[-73.93149,40.79049],[-73.92971,40.79137],[-73.92788,40.79095],[-73.92716,40.79191],[-73.92827,40.79233],[-73.92827,40.79321],[-73.92733,40.79447],[-73.92688,40.79623],[-73.92749,40.79812],[-73.92649,40.80068],[-73.92527,40.80202],[-73.92266,40.80185],[-73.92133,40.80084]]],[[[-73.94355,40.7829],[-73.94405,40.78298],[-73.95577,40.78793],[-73.94921,40.79686],[-73.9446,40.80323],[-73.94616,40.80386],[-73.94432,40.80638],[-73.94277,40.80575],[-73.93488,40.81653],[-73.93383,40.81833],[-73.93388,40.81447],[-73.93433,40.80957],[-73.93355,40.80759],[-73.93116,40.80495],[-73.92999,40.80319],[-73.92905,40.8011],[-73.92905,40.79678],[-73.93021,40.7946],[-73.93349,40.79279],[-73.93582,40.79107],[-73.93705,40.7894],[-73.9381,40.78717],[-73.93982,40.78525],[-73.94249,40.7839],[-73.94355,40.7829]]]]},"properties":{"cd":111,"name":"East Harlem (CD11)","pm25":6.52,"no2":16.9}},{"type":"Feature","geometry":{"type":"Polygon","coordinates":[[[-73.93444,40.83598],[-73.93494,40.83577],[-73.9386,40.83288],[-73.94016,40.83036],[-73.9496,40.83443],[-73.95021,40.8343],[-73.94955,40.83686],[-73.94843,40.83988],[-73.9461,40.84391],[-73.94616,40.84537],[-73.94677,40.84701],[-73.9466,40.84827],[-73.94705,40.85024],[-73.94649,40.85095],[-73.94399,40.852],[-73.94188,40.85389],[-73.94027,40.85665],[-73.93755,40.86009],[-73.93649,40.86194],[-73.93399,40.86504],[-73.93244,40.86756],[-73.93194,40.87112],[-73.92899,40.87573],[-73.92688,40.8772],[-73.92449,40.87741],[-73.92238,40.87674],[-73.92266,40.87485],[-73.92244,40.87397],[-73.9211,40.87305],[-73.91999,40.87385],[-73.92083,40.87548],[-73.91888,40.87468],[-73.91922,40.87359],[-73.91633,40.87452],[-73.91522,40.87447],[-73.91227,40.87364],[-73.91066,40.87229],[-73.91105,40.86915],[-73.91255,40.86651],[-73.91394,40.86475],[-73.91533,40.86408],[-73.91533,40.86315],[-73.9171,40.86185],[-73.91949,40.85879],[-73.92122,40.85883],[-73.92116,40.85753],[-73.92238,40.85657],[-73.92227,40.85565],[-73.9236,40.85397],[-73.92971,40.84525],[-73.93083,40.84273],[-73.93444,40.83598]]]},"properties":{"cd":112,"name":"Washington Heights and Inwood (CD12)","pm25":6.55,"no2":17.5}},{"type":"Feature","geometry":{"type":"Polygon","coordinates":[[[-73.90127,40.82047],[-73.903,40.81632],[-73.90444,40.81229],[-73.90344,40.81149],[-73.90222,40.80495],[-73.90322,40.80391],[-73.90455,40.80315],[-73.90816,40.79946],[-73.90833,40.79896],[-73.91166,40.79661],[-73.91372,40.79678],[-73.91883,40.79887],[-73.92022,40.79963],[-73.92133,40.80131],[-73.92294,40.80235],[-73.92666,40.8024],[-73.9276,40.80269],[-73.92766,40.80399],[-73.92871,40.80411],[-73.93049,40.80659],[-73.93227,40.80835],[-73.93288,40.8104],[-73.93238,40.81464],[-73.93238,40.8195],[-73.93033,40.81934],[-73.92516,40.81799],[-73.92194,40.82101],[-73.91755,40.82386],[-73.91188,40.82214],[-73.90988,40.82256],[-73.90127,40.82047]]]},"properties":{"cd":201,"name":"Mott Haven and Melrose (CD1)","pm25":6.59,"no2":16.75}},{"type":"Feature","geometry":{"type":"MultiPolygon","coordinates":[[[[-73.89683,40.79581],[-73.898,40.79564],[-73.89922,40.79648],[-73.89789,40.79711],[-73.89683,40.79581]]],[[[-73.89833,40.8024],[-73.89644,40.8008],[-73.89866,40.79908],[-73.89977,40.7995],[-73.89938,40.80193],[-73.89833,40.8024]]],[[[-73.88578,40.82781],[-73.88378,40.82827],[-73.88439,40.8268],[-73.88466,40.82382],[-73.88439,40.82286],[-73.88244,40.81925],[-73.87805,40.81619],[-73.87661,40.81573],[-73.87672,40.81539],[-73.8725,40.81388],[-73.87167,40.81326],[-73.86811,40.80676],[-73.86844,40.80592],[-73.87172,40.80156],[-73.87355,40.80084],[-73.87817,40.80131],[-73.87817,40.80256],[-73.87922,40.80281],[-73.88372,40.80214],[-73.88505,40.80214],[-73.88728,40.80395],[-73.88794,40.805],[-73.88905,40.80504],[-73.88955,40.80579],[-73.8915,40.80592],[-73.892,40.80638],[-73.89827,40.80609],[-73.89855,40.80541],[-73.901,40.80487],[-73.90222,40.80495],[-73.90344,40.81149],[-73.90444,40.81229],[-73.903,40.81632],[-73.90127,40.82047],[-73.89755,40.82944],[-73.89294,40.8268],[-73.88789,40.82676],[-73.88578,40.82781]]]]},"properties":{"cd":202,"name":"Hunts Point and Longwood (CD2)","pm25":7.14,"no2":15.79}},{"type":"Feature","geometry":{"type":"Polygon","coordinates":[[[-73.88072,40.83753],[-73.88183,40.83565],[-73.8845,40.83225],[-73.88544,40.83011],[-73.88578,40.82781],[-73.88789,40.82676],[-73.89294,40.8268],[-73.89755,40.82944],[-73.90127,40.82047],[-73.90988,40.82256],[-73.91188,40.82214],[-73.91755,40.82386],[-73.9166,40.825],[-73.91216,40.82789],[-73.91138,40.82915],[-73.90266,40.84458],[-73.90094,40.84437],[-73.9015,40.84336],[-73.90033,40.84298],[-73.89966,40.84424],[-73.89483,40.8437],[-73.89539,40.84294],[-73.88944,40.83942],[-73.88816,40.83988],[-73.88661,40.83929],[-73.88611,40.84047],[-73.88072,40.83753]]]},"properties":{"cd":203,"name":"Morrisania and Crotona (CD3)","pm25":6.54,"no2":16.27}},{"type":"Feature","geometry":{"type":"Polygon","coordinates":[[[-73.90266,40.84458],[-73.91138,40.82915],[-73.91216,40.82789],[-73.9166,40.825],[-73.91755,40.82386],[-73.92194,40.82101],[-73.92516,40.81799],[-73.93033,40.81934],[-73.93238,40.8195],[-73.93277,40.82563],[-73.9336,40.8328],[-73.93299,40.83569],[-73.93049,40.83992],[-73.92921,40.84282],[-73.9286,40.84466],[-73.92733,40.84651],[-73.92355,40.84475],[-73.91699,40.84512],[-73.91083,40.84512],[-73.90266,40.84458]]]},"properties":{"cd":204,"name":"Highbridge and Concourse (CD4)","pm25":6.36,"no2":17.31}},{"type":"Feature","geometry":{"type":"Polygon","coordinates":[[[-73.89139,40.86169],[-73.89322,40.85988],[-73.90011,40.84919],[-73.90266,40.84458],[-73.91083,40.84512],[-73.91699,40.84512],[-73.92355,40.84475],[-73.92733,40.84651],[-73.92466,40.84978],[-73.92255,40.85317],[-73.91955,40.85682],[-73.91577,40.86064],[-73.91088,40.85879],[-73.90966,40.85749],[-73.90777,40.85959],[-73.90388,40.85837],[-73.90111,40.86278],[-73.89944,40.8621],[-73.89694,40.86244],[-73.89139,40.86169]]]},"properties":{"cd":205,"name":"Fordham and University Heights (CD5)","pm25":6.43,"no2":17.15}},{"type":"Feature","geometry":{"type":"Polygon","coordinates":[[[-73.87183,40.84378],[-73.87278,40.83976],[-73.87378,40.83636],[-73.87722,40.83657],[-73.88072,40.83753],[-73.88611,40.84047],[-73.88661,40.83929],[-73.88816,40.83988],[-73.88944,40.83942],[-73.89539,40.84294],[-73.89483,40.8437],[-73.89966,40.84424],[-73.90033,40.84298],[-73.9015,40.84336],[-73.90094,40.84437],[-73.90266,40.84458],[-73.90011,40.84919],[-73.89322,40.85988],[-73.89139,40.86169],[-73.89066,40.86131],[-73.888,40.86391],[-73.88311,40.86659],[-73.88372,40.86429],[-73.88033,40.86055],[-73.88083,40.85816],[-73.88061,40.85674],[-73.88244,40.85036],[-73.88261,40.84772],[-73.87722,40.84399],[-73.878,40.84282],[-73.87461,40.84152],[-73.874,40.84252],[-73.87183,40.84378]]]},"properties":{"cd":206,"name":"Belmont and East Tremont (CD6)","pm25":6.56,"no2":16.3}},{"type":"Feature","geometry":{"type":"Polygon","coordinates":[[[-73.87517,40.87158],[-73.87694,40.86995],[-73.88311,40.86659],[-73.888,40.86391],[-73.89066,40.86131],[-73.89139,40.86169],[-73.89694,40.86244],[-73.89944,40.8621],[-73.90111,40.86278],[-73.90388,40.85837],[-73.90777,40.85959],[-73.90966,40.85749],[-73.91088,40.85879],[-73.91577,40.86064],[-73.91033,40.86676],[-73.90866,40.87137],[-73.90961,40.87309],[-73.91066,40.87397],[-73.90972,40.87464],[-73.90855,40.87376],[-73.90572,40.87313],[-73.90444,40.87225],[-73.9045,40.87057],[-73.90377,40.86961],[-73.90238,40.86869],[-73.89994,40.86802],[-73.89933,40.86923],[-73.89777,40.87087],[-73.89139,40.87896],[-73.89,40.88022],[-73.88839,40.88227],[-73.88716,40.88257],[-73.88705,40.88437],[-73.88422,40.8832],[-73.88278,40.88341],[-73.88122,40.88269],[-73.87817,40.88689],[-73.878,40.88743],[-73.87761,40.88454],[-73.87811,40.88215],[-73.87472,40.88156],[-73.87478,40.88009],[-73.87017,40.88034],[-73.87161,40.87691],[-73.87255,40.87519],[-73.87517,40.87158]]]},"properties":{"cd":207,"name":"Kingsbridge Heights and Bedford (CD7)","pm25":6.49,"no2":15.65}},{"type":"Feature","geometry":{"type":"Polygon","coordinates":[[[-73.88705,40.88437],[-73.88716,40.88257],[-73.88839,40.88227],[-73.89,40.88022],[-73.89139,40.87896],[-73.89777,40.87087],[-73.89933,40.86923],[-73.89994,40.86802],[-73.90238,40.86869],[-73.90377,40.86961],[-73.9045,40.87057],[-73.90444,40.87225],[-73.90572,40.87313],[-73.90855,40.87376],[-73.90972,40.87464],[-73.91066,40.87397],[-73.91166,40.87447],[-73.91577,40.87573],[-73.91777,40.87565],[-73.91977,40.8764],[-73.92205,40.87858],[-73.92455,40.87904],[-73.92383,40.88034],[-73.9206,40.88718],[-73.91694,40.89666],[-73.91516,40.9016],[-73.91544,40.90181],[-73.91461,40.90412],[-73.91416,40.90416],[-73.91266,40.90806],[-73.91144,40.91284],[-73.91166,40.91343],[-73.91011,40.9154],[-73.90849,40.91502],[-73.90244,40.91297],[-73.90061,40.91259],[-73.89661,40.91142],[-73.89639,40.9032],[-73.89716,40.89938],[-73.89644,40.89364],[-73.89677,40.89263],[-73.89977,40.88651],[-73.88761,40.88424],[-73.88705,40.88437]]]},"properties":{"cd":208,"name":"Riverdale and Fieldston (CD8)","pm25":6.41,"no2":14.72}},{"type":"Feature","geometry":{"type":"Polygon","coordinates":[[[-73.83978,40.8356],[-73.83939,40.8346],[-73.83995,40.83334],[-73.84223,40.83154],[-73.84311,40.82978],[-73.84306,40.82894],[-73.84173,40.82575],[-73.84045,40.82336],[-73.83984,40.82156],[-73.84028,40.81963],[-73.842,40.81879],[-73.84211,40.81808],[-73.84411,40.81451],[-73.84528,40.81179],[-73.84617,40.81066],[-73.84745,40.81091],[-73.84822,40.81246],[-73.84906,40.81212],[-73.84984,40.80999],[-73.84995,40.80856],[-73.84839,40.80739],[-73.84839,40.80638],[-73.8475,40.80546],[-73.84872,40.80474],[-73.85017,40.80453],[-73.85583,40.80453],[-73.85611,40.80529],[-73.85811,40.80546],[-73.85867,40.80684],[-73.85839,40.80827],[-73.85906,40.80999],[-73.86033,40.80952],[-73.86439,40.81028],[-73.86767,40.81057],[-73.86978,40.81342],[-73.87172,40.81493],[-73.8765,40.81615],[-73.87661,40.81573],[-73.87805,40.81619],[-73.88244,40.81925],[-73.88439,40.82286],[-73.88466,40.82382],[-73.88439,40.8268],[-73.88378,40.82827],[-73.88578,40.82781],[-73.88544,40.83011],[-73.8845,40.83225],[-73.88183,40.83565],[-73.88072,40.83753],[-73.87722,40.83657],[-73.87378,40.83636],[-73.87278,40.83976],[-73.86922,40.83959],[-73.86783,40.84018],[-73.86344,40.84131],[-73.85333,40.84248],[-73.85206,40.8356],[-73.85167,40.83422],[-73.8485,40.83451],[-73.83978,40.8356]]]},"properties":{"cd":209,"name":"Parkchester and Soundview (CD9)","pm25":6.49,"no2":15.59}},{"type":"Feature","geometry":{"type":"MultiPolygon","coordinates":[[[[-73.80223,40.84164],[-73.80262,40.8411],[-73.80529,40.84114],[-73.80695,40.84147],[-73.80679,40.84248],[-73.80395,40.84261],[-73.80223,40.84164]]],[[[-73.78923,40.85875],[-73.78879,40.85841],[-73.7889,40.85661],[-73.78834,40.85561],[-73.78851,40.85443],[-73.78795,40.85347],[-73.7864,40.85213],[-73.78445,40.85108],[-73.78357,40.84927],[-73.78245,40.84936],[-73.78151,40.84856],[-73.78307,40.8455],[-73.78345,40.84366],[-73.78157,40.8408],[-73.78134,40.83929],[-73.7819,40.83766],[-73.78412,40.83674],[-73.78557,40.83791],[-73.78573,40.83925],[-73.78729,40.83967],[-73.78823,40.84219],[-73.78962,40.84449],[-73.79145,40.8468],[-73.79134,40.84823],[-73.78973,40.84953],[-73.79012,40.8512],[-73.79112,40.85204],[-73.79129,40.8546],[-73.79206,40.85565],[-73.79206,40.85653],[-73.79001,40.85854],[-73.78923,40.85875]]],[[[-73.76785,40.85443],[-73.7694,40.85254],[-73.76862,40.85078],[-73.76962,40.8476],[-73.7679,40.84529],[-73.76901,40.84508],[-73.77157,40.84751],[-73.7709,40.84974],[-73.77246,40.85171],[-73.77212,40.85443],[-73.77218,40.85997],[-73.77084,40.86009],[-73.76835,40.85837],[-73.76835,40.85766],[-73.76535,40.85506],[-73.76785,40.85443]]],[[[-73.78457,40.86051],[-73.7844,40.85971],[-73.78512,40.85879],[-73.7869,40.86026],[-73.78457,40.86051]]],[[[-73.83978,40.8356],[-73.8485,40.83451],[-73.85167,40.83422],[-73.85206,40.8356],[-73.85333,40.84248],[-73.84806,40.84307],[-73.84489,40.84542],[-73.84328,40.84353],[-73.84123,40.84059],[-73.83939,40.84089],[-73.83839,40.84068],[-73.83645,40.84714],[-73.83617,40.85104],[-73.83573,40.85263],[-73.83395,40.85514],[-73.83112,40.85753],[-73.82834,40.86089],[-73.82812,40.86118],[-73.831,40.86533],[-73.83373,40.87078],[-73.83445,40.87343],[-73.8345,40.87607],[-73.8335,40.87863],[-73.83206,40.88022],[-73.83006,40.88173],[-73.82623,40.8837],[-73.82345,40.88471],[-73.81984,40.88567],[-73.81934,40.88357],[-73.82023,40.88051],[-73.82023,40.87812],[-73.82112,40.87661],[-73.81978,40.87615],[-73.82034,40.87527],[-73.82017,40.87401],[-73.82195,40.87167],[-73.82195,40.87053],[-73.82001,40.86898],[-73.81817,40.86932],[-73.81723,40.86902],[-73.81551,40.86923],[-73.81523,40.86818],[-73.8144,40.86793],[-73.81578,40.86575],[-73.8149,40.86391],[-73.81512,40.86307],[-73.81639,40.86118],[-73.81867,40.8606],[-73.81878,40.85938],[-73.82056,40.85904],[-73.82034,40.86101],[-73.82128,40.86114],[-73.83,40.85821],[-73.82989,40.85619],[-73.82862,40.85573],[-73.82678,40.85301],[-73.82728,40.85003],[-73.82723,40.84881],[-73.826,40.84613],[-73.8255,40.84584],[-73.82051,40.84852],[-73.82012,40.84802],[-73.81628,40.84856],[-73.81617,40.84701],[-73.81423,40.846],[-73.81417,40.84475],[-73.81345,40.84366],[-73.81501,40.84349],[-73.8154,40.8424],[-73.81478,40.83908],[-73.8159,40.83862],[-73.81645,40.83779],[-73.81606,40.8346],[-73.81551,40.83229],[-73.81478,40.83082],[-73.81384,40.82999],[-73.81273,40.82827],[-73.81384,40.82684],[-73.81406,40.82449],[-73.81328,40.82395],[-73.80967,40.82529],[-73.80912,40.82588],[-73.80701,40.82533],[-73.80667,40.8234],[-73.80584,40.82189],[-73.80573,40.82017],[-73.80334,40.81825],[-73.80245,40.81854],[-73.79756,40.81653],[-73.7974,40.81577],[-73.79901,40.81556],[-73.80012,40.81401],[-73.80145,40.81292],[-73.80279,40.81246],[-73.80317,40.81351],[-73.80512,40.81565],[-73.80567,40.81502],[-73.80495,40.81217],[-73.8039,40.81212],[-73.80234,40.81003],[-73.79856,40.80961],[-73.79229,40.80684],[-73.79084,40.80734],[-73.79006,40.80541],[-73.79106,40.80428],[-73.7934,40.8042],[-73.79518,40.80575],[-73.79884,40.80718],[-73.80167,40.80902],[-73.80406,40.80877],[-73.80712,40.81066],[-73.80856,40.81217],[-73.81401,40.81355],[-73.81651,40.81384],[-73.82117,40.81296],[-73.82428,40.81212],[-73.82628,40.81128],[-73.82784,40.81145],[-73.82984,40.81099],[-73.83184,40.80927],[-73.83217,40.80751],[-73.83162,40.80663],[-73.83167,40.80495],[-73.83456,40.8052],[-73.83689,40.80592],[-73.83806,40.80705],[-73.83817,40.80806],[-73.84028,40.81145],[-73.84034,40.81313],[-73.83967,40.81393],[-73.83956,40.81581],[-73.84017,40.8172],[-73.84006,40.81791],[-73.83895,40.819],[-73.83906,40.82269],[-73.84111,40.82617],[-73.84223,40.82835],[-73.84189,40.8307],[-73.839,40.83338],[-73.83884,40.8338],[-73.83923,40.83674],[-73.83917,40.83871],[-73.84028,40.8395],[-73.83978,40.8356]]]]},"properties":{"cd":210,"name":"Throgs Neck and Co-op City (CD10)","pm25":6.34,"no2":14.8}},{"type":"Feature","geometry":{"type":"Polygon","coordinates":[[[-73.82834,40.86089],[-73.83112,40.85753],[-73.83395,40.85514],[-73.83573,40.85263],[-73.83617,40.85104],[-73.83645,40.84714],[-73.83839,40.84068],[-73.83939,40.84089],[-73.84123,40.84059],[-73.84328,40.84353],[-73.84489,40.84542],[-73.84806,40.84307],[-73.85333,40.84248],[-73.86344,40.84131],[-73.86783,40.84018],[-73.86922,40.83959],[-73.87278,40.83976],[-73.87183,40.84378],[-73.87094,40.84433],[-73.86889,40.8481],[-73.8695,40.84869],[-73.86828,40.85095],[-73.86989,40.85569],[-73.86817,40.85808],[-73.87105,40.85737],[-73.87056,40.86139],[-73.87039,40.86433],[-73.87056,40.86969],[-73.86656,40.86969],[-73.85745,40.86953],[-73.85556,40.87183],[-73.85361,40.8733],[-73.84861,40.87167],[-73.83578,40.865],[-73.83089,40.86223],[-73.8295,40.86185],[-73.82834,40.86089]]]},"properties":{"cd":211,"name":"Morris Park and Bronxdale (CD11)","pm25":6.45,"no2":14.8}},{"type":"Feature","geometry":{"type":"Polygon","coordinates":[[[-73.81984,40.88567],[-73.82345,40.88471],[-73.82623,40.8837],[-73.83006,40.88173],[-73.83206,40.88022],[-73.8335,40.87863],[-73.8345,40.87607],[-73.83445,40.87343],[-73.83373,40.87078],[-73.831,40.86533],[-73.82812,40.86118],[-73.82834,40.86089],[-73.8295,40.86185],[-73.83089,40.86223],[-73.83578,40.865],[-73.84861,40.87167],[-73.85361,40.8733],[-73.85556,40.87183],[-73.85745,40.86953],[-73.86656,40.86969],[-73.87056,40.86969],[-73.87056,40.8715],[-73.87517,40.87158],[-73.87255,40.87519],[-73.87161,40.87691],[-73.87017,40.88034],[-73.87478,40.88009],[-73.87472,40.88156],[-73.87811,40.88215],[-73.87761,40.88454],[-73.878,40.88743],[-73.87917,40.89032],[-73.88016,40.89209],[-73.88039,40.89318],[-73.88005,40.89523],[-73.87711,40.89548],[-73.87622,40.89712],[-73.87489,40.89837],[-73.87083,40.9003],[-73.86961,40.90106],[-73.86789,40.90295],[-73.85945,40.90051],[-73.85889,40.90173],[-73.85711,40.90366],[-73.857,40.90458],[-73.856,40.90529],[-73.85695,40.90596],[-73.85422,40.90701],[-73.85461,40.90894],[-73.85295,40.91037],[-73.85228,40.90986],[-73.8535,40.90752],[-73.85095,40.90664],[-73.85017,40.90752],[-73.84706,40.90617],[-73.84484,40.90554],[-73.84489,40.9042],[-73.84139,40.90416],[-73.84067,40.90139],[-73.83923,40.89951],[-73.83967,40.89733],[-73.83839,40.89406],[-73.83806,40.89414],[-73.82367,40.8899],[-73.82284,40.8912],[-73.81828,40.88986],[-73.8029,40.88605],[-73.79384,40.88366],[-73.79418,40.88299],[-73.80329,40.88542],[-73.80551,40.88609],[-73.80762,40.88596],[-73.81212,40.88672],[-73.81484,40.88676],[-73.81673,40.88647],[-73.81984,40.88567]]]},"properties":{"cd":212,"name":"Williamsbridge and Baychester (CD12)","pm25":6.36,"no2":14.72}},{"type":"Feature","geometry":{"type":"Polygon","coordinates":[[[-73.92405,40.71413],[-73.92222,40.71287],[-73.92155,40.71103],[-73.92077,40.71053],[-73.92188,40.70939],[-73.92594,40.70583],[-73.93394,40.70268],[-73.94194,40.70071],[-73.95704,40.69899],[-73.96188,40.6982],[-73.96282,40.69803],[-73.96216,40.70021],[-73.96721,40.70424],[-73.96838,40.70684],[-73.96927,40.70709],[-73.96993,40.70931],[-73.96849,40.71313],[-73.96882,40.71321],[-73.96654,40.71803],[-73.9651,40.71925],[-73.96299,40.72201],[-73.96154,40.72512],[-73.96116,40.72529],[-73.95832,40.7244],[-73.95843,40.72541],[-73.9601,40.72533],[-73.9616,40.72587],[-73.96104,40.72872],[-73.96127,40.73007],[-73.96127,40.73015],[-73.96166,40.73149],[-73.96171,40.73157],[-73.96227,40.73405],[-73.9616,40.73518],[-73.95982,40.73707],[-73.95693,40.73887],[-73.95477,40.73912],[-73.95321,40.739],[-73.95038,40.73828],[-73.94643,40.73677],[-73.94238,40.73543],[-73.94116,40.73413],[-73.93977,40.73107],[-73.93694,40.7291],[-73.93494,40.72856],[-73.9296,40.72763],[-73.92788,40.72583],[-73.92777,40.72491],[-73.9256,40.72004],[-73.92449,40.71962],[-73.92483,40.71849],[-73.92838,40.71757],[-73.92971,40.71702],[-73.92949,40.71572],[-73.9321,40.71505],[-73.93121,40.71371],[-73.93266,40.713],[-73.93094,40.70918],[-73.93027,40.70893],[-73.93183,40.71254],[-73.93044,40.71321],[-73.93083,40.71489],[-73.92844,40.71552],[-73.92888,40.71656],[-73.9281,40.71711],[-73.9246,40.71795],[-73.92305,40.71635],[-73.92483,40.71526],[-73.92405,40.71413]]]},"properties":{"cd":301,"name":"Greenpoint and Williamsburg (CD1)","pm25":7.17,"no2":17.1}},{"type":"Feature","geometry":{"type":"Polygon","coordinates":[[[-73.96927,40.70709],[-73.96838,40.70684],[-73.96721,40.70424],[-73.96216,40.70021],[-73.96282,40.69803],[-73.96188,40.6982],[-73.96193,40.6979],[-73.96027,40.69036],[-73.95838,40.6808],[-73.95827,40.67983],[-73.96754,40.68176],[-73.96765,40.68096],[-73.97393,40.68226],[-73.97621,40.68273],[-73.97876,40.68377],[-73.98049,40.68122],[-73.98287,40.68214],[-73.98243,40.68277],[-73.98437,40.68352],[-73.98482,40.68289],[-73.98699,40.68377],[-73.98654,40.6844],[-73.98871,40.68524],[-73.98915,40.68457],[-73.99393,40.68646],[-73.99237,40.68969],[-73.99993,40.69178],[-74.00176,40.69241],[-74.00398,40.69321],[-74.00343,40.69405],[-74.00126,40.69329],[-74.00098,40.69409],[-74.00304,40.69476],[-74.00237,40.69572],[-74.00026,40.69497],[-73.99876,40.69711],[-74.00104,40.6979],[-74.00048,40.69874],[-73.99837,40.69807],[-73.99804,40.69874],[-74.00004,40.69946],[-73.99948,40.70034],[-73.99748,40.69962],[-73.99671,40.70088],[-73.99815,40.70151],[-73.99621,40.7034],[-73.99543,40.70327],[-73.9946,40.70436],[-73.99215,40.7047],[-73.99093,40.70403],[-73.9901,40.70495],[-73.98343,40.70566],[-73.98093,40.70537],[-73.97926,40.70579],[-73.97804,40.70428],[-73.97599,40.7047],[-73.97693,40.70281],[-73.97599,40.70193],[-73.97321,40.70168],[-73.97282,40.70273],[-73.96982,40.70025],[-73.96949,40.7005],[-73.97282,40.70336],[-73.96927,40.70138],[-73.96899,40.70176],[-73.97143,40.70352],[-73.97104,40.70382],[-73.97338,40.70575],[-73.97254,40.70621],[-73.97465,40.70767],[-73.97421,40.70801],[-73.97121,40.70579],[-73.97104,40.70696],[-73.97276,40.70885],[-73.97232,40.7091],[-73.97027,40.70688],[-73.97015,40.70495],[-73.9676,40.70336],[-73.96749,40.70394],[-73.96932,40.70507],[-73.96927,40.70709]]]},"properties":{"cd":302,"name":"Fort Greene and Brooklyn Heights (CD2)","pm25":6.75,"no2":18.47}},{"type":"Feature","geometry":{"type":"Polygon","coordinates":[[[-73.91805,40.68721],[-73.91633,40.67857],[-73.91644,40.67665],[-73.92183,40.67694],[-73.95205,40.67857],[-73.95827,40.67983],[-73.95838,40.6808],[-73.96027,40.69036],[-73.96193,40.6979],[-73.96188,40.6982],[-73.95704,40.69899],[-73.94194,40.70071],[-73.92971,40.69388],[-73.91805,40.68721]]]},"properties":{"cd":303,"name":"Bedford Stuyvesant (CD3)","pm25":6.54,"no2":16.37}},{"type":"Feature","geometry":{"type":"Polygon","coordinates":[[[-73.89644,40.68235],[-73.8975,40.68008],[-73.90022,40.67941],[-73.90261,40.68067],[-73.90405,40.6792],[-73.91805,40.68721],[-73.92971,40.69388],[-73.94194,40.70071],[-73.93394,40.70268],[-73.92594,40.70583],[-73.92188,40.70939],[-73.91183,40.70344],[-73.91288,40.70235],[-73.91066,40.70105],[-73.91183,40.69996],[-73.90427,40.69568],[-73.90577,40.69413],[-73.90138,40.69157],[-73.90188,40.69107],[-73.90044,40.68818],[-73.90116,40.68788],[-73.89644,40.68235]]]},"properties":{"cd":304,"name":"Bushwick (CD4)","pm25":6.66,"no2":15.69}},{"type":"Feature","geometry":{"type":"Polygon","coordinates":[[[-73.86839,40.69472],[-73.86861,40.69388],[-73.86744,40.68839],[-73.86661,40.68528],[-73.866,40.68193],[-73.86411,40.68239],[-73.86328,40.67908],[-73.86233,40.67916],[-73.86039,40.67124],[-73.85761,40.67166],[-73.85567,40.66386],[-73.85845,40.66344],[-73.85761,40.66012],[-73.86028,40.65962],[-73.86317,40.65828],[-73.86272,40.65761],[-73.86328,40.65694],[-73.863,40.65602],[-73.861,40.65522],[-73.86056,40.65467],[-73.86239,40.65358],[-73.86939,40.64977],[-73.87133,40.64859],[-73.8735,40.64687],[-73.87922,40.65459],[-73.87911,40.65371],[-73.87389,40.64637],[-73.87533,40.64465],[-73.87683,40.64214],[-73.878,40.63979],[-73.87917,40.64163],[-73.88494,40.64679],[-73.89139,40.65237],[-73.89355,40.65522],[-73.89761,40.65346],[-73.89816,40.65404],[-73.89905,40.65736],[-73.89922,40.65912],[-73.90266,40.6722],[-73.9035,40.67551],[-73.90333,40.67786],[-73.90405,40.6792],[-73.90261,40.68067],[-73.90022,40.67941],[-73.8975,40.68008],[-73.89644,40.68235],[-73.89555,40.68377],[-73.89416,40.68528],[-73.89261,40.68348],[-73.89016,40.68499],[-73.88961,40.68423],[-73.88811,40.68528],[-73.8845,40.68667],[-73.88378,40.68788],[-73.8795,40.69115],[-73.874,40.69417],[-73.86894,40.69514],[-73.86839,40.69472]]]},"properties":{"cd":305,"name":"East New York and Starrett City (CD5)","pm25":6.21,"no2":14.91}},{"type":"Feature","geometry":{"type":"Polygon","coordinates":[[[-74.00176,40.69241],[-73.99993,40.69178],[-73.99237,40.68969],[-73.99393,40.68646],[-73.98915,40.68457],[-73.98871,40.68524],[-73.98654,40.6844],[-73.98699,40.68377],[-73.98482,40.68289],[-73.98437,40.68352],[-73.98243,40.68277],[-73.98287,40.68214],[-73.98049,40.68122],[-73.97876,40.68377],[-73.97621,40.68273],[-73.97393,40.68226],[-73.97438,40.68105],[-73.97515,40.68088],[-73.97104,40.67522],[-73.97143,40.67371],[-73.97088,40.67187],[-73.97182,40.67065],[-73.97965,40.66126],[-73.98015,40.66117],[-73.9966,40.6691],[-73.99876,40.67161],[-74.00032,40.66872],[-74.00221,40.66859],[-74.00287,40.66734],[-74.00509,40.66797],[-74.00598,40.66788],[-74.00476,40.67073],[-74.00543,40.6709],[-74.00659,40.66864],[-74.00987,40.66851],[-74.01154,40.66507],[-74.01576,40.66457],[-74.01693,40.66486],[-74.01787,40.66587],[-74.01859,40.6704],[-74.01754,40.67103],[-74.0167,40.66545],[-74.01226,40.66574],[-74.01087,40.66859],[-74.01087,40.66973],[-74.01165,40.67057],[-74.01426,40.67136],[-74.01632,40.67291],[-74.01815,40.67195],[-74.01881,40.67224],[-74.01726,40.67363],[-74.0182,40.67447],[-74.01798,40.67656],[-74.01976,40.6766],[-74.01843,40.6779],[-74.01926,40.67966],[-74.0152,40.68197],[-74.01282,40.68361],[-74.01215,40.68289],[-74.01409,40.68172],[-74.01304,40.68042],[-74.00965,40.68327],[-74.01076,40.68436],[-74.00837,40.68642],[-74.00743,40.68822],[-74.00498,40.68759],[-74.00459,40.68822],[-74.00676,40.68885],[-74.00637,40.68969],[-74.00382,40.68893],[-74.00343,40.6896],[-74.00576,40.69023],[-74.00532,40.69111],[-74.00198,40.69015],[-74.00071,40.69061],[-74.00482,40.69178],[-74.00443,40.69254],[-74.00198,40.69182],[-74.00176,40.69241]]]},"properties":{"cd":306,"name":"Park Slope and Carroll Gardens (CD6)","pm25":6.76,"no2":17.02}},{"type":"Feature","geometry":{"type":"Polygon","coordinates":[[[-73.98015,40.66117],[-73.97449,40.65832],[-73.9741,40.65769],[-73.97221,40.65107],[-73.97138,40.64826],[-73.97315,40.64759],[-73.97526,40.64784],[-73.98182,40.64713],[-73.98837,40.64457],[-73.98904,40.64411],[-73.99604,40.64834],[-73.99704,40.64755],[-74.01048,40.63459],[-74.0197,40.63723],[-74.02159,40.63908],[-74.02298,40.63991],[-74.02354,40.63933],[-74.0257,40.64063],[-74.02609,40.64025],[-74.03231,40.64402],[-74.03054,40.64528],[-74.0282,40.64402],[-74.02604,40.64625],[-74.02976,40.64847],[-74.02937,40.6488],[-74.0257,40.64662],[-74.02415,40.64763],[-74.02554,40.64977],[-74.02493,40.65111],[-74.0227,40.65128],[-74.02154,40.65069],[-74.02093,40.65124],[-74.02198,40.65224],[-74.0212,40.65283],[-74.02115,40.65421],[-74.01787,40.65404],[-74.01637,40.65564],[-74.01909,40.65736],[-74.01859,40.65786],[-74.01587,40.65623],[-74.01443,40.65761],[-74.01748,40.65945],[-74.01554,40.66075],[-74.01365,40.66004],[-74.01182,40.65891],[-74.01109,40.65971],[-74.01404,40.66155],[-74.01265,40.66197],[-74.00859,40.65954],[-74.00748,40.66054],[-74.01037,40.66239],[-74.0087,40.66335],[-74.00615,40.66184],[-74.00621,40.66281],[-74.00487,40.66507],[-74.00115,40.66289],[-73.99954,40.6644],[-74.00293,40.66646],[-74.00071,40.66755],[-73.99998,40.66746],[-73.99865,40.66952],[-73.99876,40.67161],[-73.9966,40.6691],[-73.98015,40.66117]]]},"properties":{"cd":307,"name":"Sunset Park (CD7)","pm25":6.74,"no2":16.72}},{"type":"Feature","geometry":{"type":"Polygon","coordinates":[[[-73.95827,40.67983],[-73.95205,40.67857],[-73.92183,40.67694],[-73.92277,40.66709],[-73.92438,40.66637],[-73.92871,40.66449],[-73.92833,40.66864],[-73.95527,40.6701],[-73.96254,40.67161],[-73.96571,40.67258],[-73.96865,40.67308],[-73.96877,40.67426],[-73.96982,40.67543],[-73.97104,40.67522],[-73.97515,40.68088],[-73.97438,40.68105],[-73.97393,40.68226],[-73.96765,40.68096],[-73.96754,40.68176],[-73.95827,40.67983]]]},"properties":{"cd":308,"name":"Crown Heights and Prospect Heights (CD8)","pm25":6.46,"no2":16.55}},{"type":"Feature","geometry":{"type":"Polygon","coordinates":[[[-73.92871,40.66449],[-73.9316,40.66323],[-73.93088,40.6566],[-73.95632,40.65505],[-73.95971,40.65484],[-73.95988,40.65564],[-73.96188,40.65488],[-73.9631,40.66214],[-73.96227,40.66319],[-73.96093,40.66327],[-73.96254,40.67161],[-73.95527,40.6701],[-73.92833,40.66864],[-73.92871,40.66449]]]},"properties":{"cd":309,"name":"South Crown Heights and Lefferts Gardens (CD9)","pm25":6.24,"no2":15.87}},{"type":"Feature","geometry":{"type":"Polygon","coordinates":[[[-74.03231,40.64402],[-74.02609,40.64025],[-74.0257,40.64063],[-74.02354,40.63933],[-74.02298,40.63991],[-74.02159,40.63908],[-74.0197,40.63723],[-74.01048,40.63459],[-74.00932,40.634],[-73.99721,40.62671],[-74.01704,40.60767],[-74.01548,40.60683],[-74.01943,40.60289],[-74.02104,40.60356],[-74.02931,40.60461],[-74.03104,40.60524],[-74.0327,40.60633],[-74.03487,40.60859],[-74.03603,40.6093],[-74.03726,40.61161],[-74.03881,40.61295],[-74.04048,40.61564],[-74.04159,40.62037],[-74.04187,40.62453],[-74.04103,40.63027],[-74.0367,40.63916],[-74.0357,40.64063],[-74.0367,40.64168],[-74.03409,40.64432],[-74.03231,40.64402]]]},"properties":{"cd":310,"name":"Bay Ridge and Dyker Heights (CD10)","pm25":6.22,"no2":15.61}},{"type":"Feature","geometry":{"type":"Polygon","coordinates":[[[-73.97299,40.6088],[-73.97215,40.60419],[-73.97326,40.59698],[-73.98371,40.5958],[-73.98521,40.59639],[-73.99154,40.59039],[-73.99421,40.58888],[-73.99537,40.58935],[-73.99787,40.58834],[-73.99865,40.58918],[-73.99843,40.59023],[-73.9971,40.59127],[-73.99754,40.5919],[-73.99915,40.59115],[-73.99948,40.59295],[-74.00109,40.59253],[-74.00271,40.59496],[-74.00559,40.59756],[-74.0092,40.59983],[-74.01237,40.60134],[-74.0147,40.60205],[-74.01943,40.60289],[-74.01548,40.60683],[-74.01704,40.60767],[-73.99721,40.62671],[-73.99398,40.62515],[-73.97499,40.61367],[-73.97399,40.61404],[-73.97299,40.6088]]]},"properties":{"cd":311,"name":"Bensonhurst (CD11)","pm25":6.07,"no2":14.22}},{"type":"Feature","geometry":{"type":"Polygon","coordinates":[[[-73.97138,40.64826],[-73.96765,40.63522],[-73.97243,40.633],[-73.97254,40.63371],[-73.9776,40.63316],[-73.97654,40.62729],[-73.9726,40.62792],[-73.96593,40.62863],[-73.96238,40.60998],[-73.97299,40.6088],[-73.97399,40.61404],[-73.97499,40.61367],[-73.99398,40.62515],[-73.99721,40.62671],[-74.00932,40.634],[-74.01048,40.63459],[-73.99704,40.64755],[-73.99604,40.64834],[-73.98904,40.64411],[-73.98837,40.64457],[-73.98182,40.64713],[-73.97526,40.64784],[-73.97315,40.64759],[-73.97138,40.64826]]]},"properties":{"cd":312,"name":"Borough Park (CD12)","pm25":6.16,"no2":15.37}},{"type":"Feature","geometry":{"type":"Polygon","coordinates":[[[-73.98371,40.5958],[-73.97421,40.5901],[-73.97432,40.58796],[-73.96054,40.58947],[-73.96004,40.58327],[-73.9591,40.58285],[-73.95716,40.58306],[-73.95493,40.58197],[-73.95366,40.57584],[-73.95416,40.57433],[-73.95516,40.57438],[-73.96854,40.57312],[-73.97249,40.57257],[-73.97549,40.57199],[-73.97843,40.5719],[-73.98726,40.57106],[-73.99315,40.57039],[-73.99737,40.57027],[-74.00037,40.57052],[-74.00204,40.57023],[-74.00248,40.57173],[-74.00482,40.57287],[-74.00671,40.57341],[-74.01009,40.57383],[-74.01204,40.57488],[-74.01304,40.57777],[-74.01237,40.57924],[-74.01148,40.58008],[-74.00826,40.58155],[-74.00604,40.58197],[-74.00293,40.58142],[-73.99965,40.58134],[-73.99826,40.58159],[-73.99787,40.58058],[-73.99182,40.57924],[-73.99037,40.57941],[-73.98899,40.57882],[-73.98737,40.57907],[-73.98993,40.58067],[-73.99165,40.58109],[-73.99171,40.58184],[-73.99032,40.58423],[-73.99265,40.5836],[-73.99604,40.58213],[-74.00021,40.58306],[-74.00037,40.58419],[-73.99932,40.58486],[-73.99937,40.58637],[-73.99815,40.58654],[-73.9941,40.58867],[-73.99421,40.58888],[-73.99154,40.59039],[-73.98521,40.59639],[-73.98371,40.5958]]]},"properties":{"cd":313,"name":"Coney Island (CD13)","pm25":5.97,"no2":12.72}},{"type":"Feature","geometry":{"type":"Polygon","coordinates":[[[-73.95632,40.65505],[-73.95582,40.65052],[-73.95566,40.64662],[-73.95471,40.64478],[-73.9541,40.63916],[-73.9536,40.6384],[-73.94827,40.63861],[-73.94777,40.634],[-73.94588,40.63413],[-73.94549,40.63077],[-73.94416,40.62952],[-73.94732,40.62918],[-73.94482,40.61606],[-73.9491,40.61304],[-73.95077,40.61161],[-73.9536,40.61094],[-73.96238,40.60998],[-73.96593,40.62863],[-73.9726,40.62792],[-73.97654,40.62729],[-73.9776,40.63316],[-73.97254,40.63371],[-73.97243,40.633],[-73.96765,40.63522],[-73.97138,40.64826],[-73.97221,40.65107],[-73.97143,40.65115],[-73.96188,40.65488],[-73.95988,40.65564],[-73.95971,40.65484],[-73.95632,40.65505]]]},"properties":{"cd":314,"name":"Flatbush and Midwood (CD14)","pm25":6.13,"no2":15}},{"type":"Feature","geometry":{"type":"Polygon","coordinates":[[[-73.9181,40.58658],[-73.92099,40.58574],[-73.92233,40.58603],[-73.92522,40.58582],[-73.92683,40.58729],[-73.92777,40.58867],[-73.92394,40.59115],[-73.92422,40.59136],[-73.92816,40.58884],[-73.93005,40.58943],[-73.93055,40.59027],[-73.93027,40.59245],[-73.92971,40.59312],[-73.92999,40.59408],[-73.93099,40.59463],[-73.93283,40.5948],[-73.93155,40.59253],[-73.9311,40.58935],[-73.92971,40.58763],[-73.92527,40.58465],[-73.92349,40.58482],[-73.91999,40.58465],[-73.91705,40.58574],[-73.91583,40.58452],[-73.91716,40.58406],[-73.91988,40.58377],[-73.92349,40.58377],[-73.9271,40.58415],[-73.92999,40.58423],[-73.92966,40.58339],[-73.93094,40.58272],[-73.9371,40.58335],[-73.9381,40.5831],[-73.94627,40.58356],[-73.94838,40.58348],[-73.95349,40.58297],[-73.95332,40.58201],[-73.94971,40.5823],[-73.94271,40.581],[-73.93249,40.58113],[-73.93105,40.57626],[-73.93149,40.57568],[-73.94249,40.57538],[-73.94449,40.57576],[-73.94593,40.57513],[-73.95277,40.57421],[-73.95416,40.57433],[-73.95366,40.57584],[-73.95493,40.58197],[-73.95716,40.58306],[-73.9591,40.58285],[-73.96004,40.58327],[-73.96054,40.58947],[-73.97432,40.58796],[-73.97421,40.5901],[-73.98371,40.5958],[-73.97326,40.59698],[-73.97215,40.60419],[-73.97299,40.6088],[-73.96238,40.60998],[-73.9536,40.61094],[-73.95077,40.61161],[-73.9491,40.61304],[-73.94482,40.61606],[-73.94405,40.61199],[-73.94382,40.6119],[-73.93788,40.60658],[-73.93844,40.60599],[-73.93427,40.60222],[-73.93355,40.60268],[-73.92816,40.59777],[-73.92955,40.59681],[-73.9181,40.58658]]]},"properties":{"cd":315,"name":"Sheepshead Bay (CD15)","pm25":5.99,"no2":13.09}},{"type":"Feature","geometry":{"type":"Polygon","coordinates":[[[-73.90405,40.6792],[-73.90333,40.67786],[-73.9035,40.67551],[-73.90266,40.6722],[-73.89922,40.65912],[-73.90061,40.65602],[-73.90155,40.65518],[-73.90755,40.65119],[-73.92416,40.66612],[-73.92438,40.66637],[-73.92277,40.66709],[-73.92183,40.67694],[-73.91644,40.67665],[-73.91633,40.67857],[-73.91805,40.68721],[-73.90405,40.6792]]]},"properties":{"cd":316,"name":"Brownsville (CD16)","pm25":6.23,"no2":15.76}},{"type":"Feature","geometry":{"type":"Polygon","coordinates":[[[-73.90755,40.65119],[-73.91594,40.64578],[-73.92327,40.63991],[-73.9261,40.63815],[-73.93521,40.63341],[-73.93799,40.63207],[-73.94166,40.63119],[-73.94549,40.63077],[-73.94588,40.63413],[-73.94777,40.634],[-73.94827,40.63861],[-73.9536,40.6384],[-73.9541,40.63916],[-73.95471,40.64478],[-73.95566,40.64662],[-73.95582,40.65052],[-73.95632,40.65505],[-73.93088,40.6566],[-73.9316,40.66323],[-73.92871,40.66449],[-73.92438,40.66637],[-73.92416,40.66612],[-73.90755,40.65119]]]},"properties":{"cd":317,"name":"East Flatbush (CD17)","pm25":6.15,"no2":15.39}},{"type":"Feature","geometry":{"type":"MultiPolygon","coordinates":[[[[-73.91583,40.58452],[-73.91705,40.58574],[-73.91572,40.5862],[-73.91288,40.58582],[-73.91583,40.58452]]],[[[-73.91988,40.59962],[-73.91866,40.59949],[-73.91627,40.59815],[-73.91444,40.59605],[-73.91311,40.59417],[-73.91322,40.59216],[-73.91483,40.59153],[-73.91594,40.59211],[-73.91644,40.59312],[-73.91788,40.59471],[-73.92088,40.59656],[-73.92227,40.59836],[-73.92083,40.59954],[-73.91988,40.59962]]],[[[-73.878,40.63979],[-73.87928,40.64],[-73.8805,40.64113],[-73.88005,40.64201],[-73.88139,40.64235],[-73.88216,40.64373],[-73.88344,40.64453],[-73.88555,40.64402],[-73.88766,40.64633],[-73.88766,40.6478],[-73.88866,40.64801],[-73.88994,40.64926],[-73.89111,40.6488],[-73.88944,40.64717],[-73.88822,40.64713],[-73.88811,40.6462],[-73.886,40.64365],[-73.88372,40.64243],[-73.88078,40.63975],[-73.87955,40.63824],[-73.87872,40.63832],[-73.88,40.63601],[-73.88133,40.63425],[-73.88428,40.63136],[-73.88478,40.62968],[-73.8865,40.6296],[-73.88839,40.62893],[-73.89333,40.6257],[-73.89494,40.62453],[-73.89627,40.62289],[-73.90288,40.62587],[-73.90411,40.62629],[-73.91444,40.63098],[-73.91588,40.63195],[-73.91749,40.6314],[-73.9166,40.63044],[-73.90916,40.62721],[-73.90272,40.62423],[-73.90066,40.62176],[-73.89694,40.62167],[-73.89744,40.61924],[-73.89711,40.61463],[-73.89716,40.61211],[-73.89833,40.60813],[-73.89894,40.60541],[-73.90016,40.60561],[-73.90111,40.607],[-73.90077,40.60754],[-73.90055,40.61044],[-73.90694,40.61606],[-73.90883,40.61731],[-73.90966,40.61656],[-73.90777,40.61526],[-73.90427,40.61203],[-73.90222,40.61035],[-73.90166,40.60608],[-73.90188,40.60574],[-73.90522,40.6049],[-73.906,40.60637],[-73.90933,40.6065],[-73.90977,40.60582],[-73.90833,40.60406],[-73.91094,40.60352],[-73.91355,40.60394],[-73.91672,40.60683],[-73.91616,40.61052],[-73.91449,40.61165],[-73.91494,40.61396],[-73.9166,40.61346],[-73.91572,40.61182],[-73.91805,40.61027],[-73.91799,40.60889],[-73.91949,40.60796],[-73.91922,40.60738],[-73.91561,40.60394],[-73.91327,40.60226],[-73.90916,40.60163],[-73.90783,40.60226],[-73.90566,40.6026],[-73.90333,40.6026],[-73.90194,40.60318],[-73.90044,40.60322],[-73.90066,40.6018],[-73.903,40.60004],[-73.9065,40.59815],[-73.90766,40.59689],[-73.90838,40.59526],[-73.90849,40.59408],[-73.90811,40.5919],[-73.90838,40.58968],[-73.90938,40.58817],[-73.91049,40.58712],[-73.91155,40.58725],[-73.91188,40.58821],[-73.91149,40.59111],[-73.91194,40.59262],[-73.91199,40.59425],[-73.91366,40.5971],[-73.91516,40.59878],[-73.91855,40.60079],[-73.91972,40.601],[-73.92149,40.60193],[-73.92322,40.60109],[-73.92399,40.59974],[-73.9251,40.59991],[-73.92949,40.60272],[-73.92899,40.60369],[-73.93116,40.60385],[-73.93194,40.60314],[-73.93149,40.60209],[-73.92921,40.6005],[-73.92838,40.60054],[-73.92505,40.59828],[-73.92249,40.59605],[-73.92177,40.59505],[-73.92083,40.59488],[-73.91788,40.59283],[-73.91655,40.59111],[-73.91461,40.58989],[-73.91455,40.58876],[-73.9171,40.58758],[-73.9181,40.58658],[-73.92955,40.59681],[-73.92816,40.59777],[-73.93355,40.60268],[-73.93427,40.60222],[-73.93844,40.60599],[-73.93788,40.60658],[-73.94382,40.6119],[-73.94405,40.61199],[-73.94482,40.61606],[-73.94732,40.62918],[-73.94416,40.62952],[-73.94549,40.63077],[-73.94166,40.63119],[-73.93799,40.63207],[-73.93521,40.63341],[-73.9261,40.63815],[-73.92327,40.63991],[-73.91594,40.64578],[-73.90755,40.65119],[-73.90155,40.65518],[-73.90061,40.65602],[-73.89922,40.65912],[-73.89905,40.65736],[-73.89816,40.65404],[-73.89761,40.65346],[-73.89355,40.65522],[-73.89139,40.65237],[-73.88494,40.64679],[-73.87917,40.64163],[-73.878,40.63979]]]]},"properties":{"cd":318,"name":"Flatlands and Canarsie (CD18)","pm25":5.96,"no2":13.34}},{"type":"Feature","geometry":{"type":"MultiPolygon","coordinates":[[[[-73.88772,40.76684],[-73.89144,40.76608],[-73.89433,40.76613],[-73.895,40.76445],[-73.89639,40.76315],[-73.89938,40.75883],[-73.89988,40.7574],[-73.89911,40.75531],[-73.89794,40.75426],[-73.91022,40.75296],[-73.90983,40.75166],[-73.91316,40.75095],[-73.91527,40.75086],[-73.92055,40.74973],[-73.92099,40.75099],[-73.92255,40.75158],[-73.92466,40.75166],[-73.93149,40.75116],[-73.93394,40.75028],[-73.93688,40.74843],[-73.93744,40.74973],[-73.94382,40.75254],[-73.94877,40.75489],[-73.95082,40.75527],[-73.94599,40.7613],[-73.94349,40.76449],[-73.94132,40.76692],[-73.93982,40.76797],[-73.93821,40.76868],[-73.93682,40.76889],[-73.93521,40.76969],[-73.93482,40.77174],[-73.93749,40.77254],[-73.93788,40.77409],[-73.93766,40.7751],[-73.93638,40.7769],[-73.9351,40.77795],[-73.93177,40.77787],[-73.92988,40.77623],[-73.9286,40.77661],[-73.92633,40.77824],[-73.92488,40.77862],[-73.92294,40.78042],[-73.9221,40.78084],[-73.9191,40.78336],[-73.91716,40.7842],[-73.91683,40.7852],[-73.91261,40.7894],[-73.91222,40.78919],[-73.90988,40.79095],[-73.9065,40.79019],[-73.90033,40.78902],[-73.89694,40.78663],[-73.89583,40.7852],[-73.89883,40.78281],[-73.89866,40.78198],[-73.89605,40.78315],[-73.89461,40.78214],[-73.89377,40.78235],[-73.89161,40.78063],[-73.89122,40.77858],[-73.89289,40.77715],[-73.89422,40.77816],[-73.89655,40.77623],[-73.89339,40.77401],[-73.88939,40.773],[-73.88866,40.76898],[-73.88772,40.76684]]],[[[-73.88883,40.79871],[-73.88716,40.79829],[-73.88533,40.79707],[-73.88394,40.79581],[-73.88166,40.79506],[-73.87978,40.79489],[-73.87789,40.7943],[-73.87583,40.79317],[-73.87494,40.79229],[-73.87289,40.79145],[-73.87122,40.78998],[-73.87083,40.78789],[-73.87161,40.7868],[-73.87311,40.78587],[-73.87678,40.78579],[-73.87833,40.78537],[-73.88594,40.78676],[-73.88833,40.78701],[-73.88939,40.7878],[-73.89055,40.79011],[-73.89216,40.7904],[-73.89283,40.79284],[-73.89177,40.79678],[-73.89061,40.79778],[-73.88922,40.79778],[-73.88883,40.79871]]]]},"properties":{"cd":401,"name":"Long Island City and Astoria (CD1)","pm25":6.6,"no2":15.7}},{"type":"Feature","geometry":{"type":"Polygon","coordinates":[[[-73.89794,40.75426],[-73.89744,40.75153],[-73.89444,40.74654],[-73.89089,40.74067],[-73.88772,40.7343],[-73.88911,40.73459],[-73.89233,40.73447],[-73.89511,40.73501],[-73.89833,40.73518],[-73.90061,40.73447],[-73.90516,40.72897],[-73.91255,40.72323],[-73.91655,40.72201],[-73.92005,40.72273],[-73.92038,40.72369],[-73.92272,40.72424],[-73.92422,40.72428],[-73.92655,40.72566],[-73.92855,40.72784],[-73.93133,40.72872],[-73.93455,40.7291],[-73.93649,40.72969],[-73.9391,40.73137],[-73.94005,40.73376],[-73.94182,40.73598],[-73.94593,40.73749],[-73.94144,40.73925],[-73.94038,40.74034],[-73.9391,40.7426],[-73.93966,40.74273],[-73.94121,40.7403],[-73.94288,40.739],[-73.94716,40.73791],[-73.95193,40.7395],[-73.95382,40.73984],[-73.95749,40.73954],[-73.96071,40.73807],[-73.96216,40.73828],[-73.96243,40.73967],[-73.96132,40.74046],[-73.96154,40.74197],[-73.96054,40.74403],[-73.96054,40.74411],[-73.95966,40.74394],[-73.95877,40.74495],[-73.95916,40.746],[-73.95704,40.74893],[-73.95504,40.74965],[-73.95449,40.75124],[-73.95293,40.75275],[-73.95082,40.75527],[-73.94877,40.75489],[-73.94382,40.75254],[-73.93744,40.74973],[-73.93688,40.74843],[-73.93394,40.75028],[-73.93149,40.75116],[-73.92466,40.75166],[-73.92255,40.75158],[-73.92099,40.75099],[-73.92055,40.74973],[-73.91527,40.75086],[-73.91316,40.75095],[-73.90983,40.75166],[-73.91022,40.75296],[-73.89794,40.75426]]]},"properties":{"cd":402,"name":"Woodside and Sunnyside (CD2)","pm25":7.27,"no2":16.61}},{"type":"Feature","geometry":{"type":"Polygon","coordinates":[[[-73.85189,40.75275],[-73.86111,40.75002],[-73.86944,40.74914],[-73.87039,40.74906],[-73.89444,40.74654],[-73.89744,40.75153],[-73.89794,40.75426],[-73.89911,40.75531],[-73.89988,40.7574],[-73.89938,40.75883],[-73.89639,40.76315],[-73.895,40.76445],[-73.89433,40.76613],[-73.89144,40.76608],[-73.88772,40.76684],[-73.88383,40.76805],[-73.879,40.77057],[-73.876,40.77153],[-73.87228,40.7717],[-73.86889,40.77065],[-73.86511,40.76801],[-73.86322,40.76625],[-73.86272,40.76667],[-73.85939,40.76248],[-73.85711,40.76118],[-73.85528,40.76063],[-73.85478,40.75984],[-73.85295,40.7587],[-73.85184,40.75631],[-73.85217,40.75338],[-73.85189,40.75275]]]},"properties":{"cd":403,"name":"Jackson Heights (CD3)","pm25":6.48,"no2":15.42}},{"type":"Feature","geometry":{"type":"Polygon","coordinates":[[[-73.8475,40.739],[-73.84995,40.73795],[-73.85245,40.73719],[-73.85661,40.73631],[-73.86444,40.73401],[-73.87511,40.73065],[-73.87972,40.72902],[-73.88172,40.72864],[-73.88561,40.72826],[-73.88628,40.73061],[-73.88772,40.7343],[-73.89089,40.74067],[-73.89444,40.74654],[-73.87039,40.74906],[-73.86944,40.74914],[-73.86111,40.75002],[-73.85189,40.75275],[-73.8505,40.75011],[-73.85445,40.74885],[-73.85361,40.74751],[-73.85011,40.74072],[-73.84778,40.74004],[-73.8475,40.739]]]},"properties":{"cd":404,"name":"Elmhurst and Corona (CD4)","pm25":6.5,"no2":15.95}},{"type":"Feature","geometry":{"type":"Polygon","coordinates":[[[-73.88772,40.7343],[-73.88628,40.73061],[-73.88561,40.72826],[-73.88172,40.72864],[-73.87972,40.72902],[-73.87511,40.73065],[-73.87144,40.72931],[-73.87094,40.72772],[-73.86928,40.72445],[-73.86522,40.71996],[-73.86006,40.71493],[-73.85967,40.71401],[-73.85978,40.71145],[-73.85928,40.70751],[-73.85817,40.70554],[-73.85595,40.70398],[-73.85528,40.7026],[-73.85528,40.70197],[-73.85895,40.7013],[-73.85822,40.70289],[-73.86011,40.70243],[-73.8645,40.70281],[-73.86661,40.70231],[-73.86833,40.70084],[-73.86889,40.69904],[-73.87056,40.69769],[-73.86894,40.69514],[-73.874,40.69417],[-73.8795,40.69115],[-73.88378,40.68788],[-73.8845,40.68667],[-73.88811,40.68528],[-73.88961,40.68423],[-73.89016,40.68499],[-73.89261,40.68348],[-73.89416,40.68528],[-73.89555,40.68377],[-73.89644,40.68235],[-73.90116,40.68788],[-73.90044,40.68818],[-73.90188,40.69107],[-73.90138,40.69157],[-73.90577,40.69413],[-73.90427,40.69568],[-73.91183,40.69996],[-73.91066,40.70105],[-73.91288,40.70235],[-73.91183,40.70344],[-73.92188,40.70939],[-73.92077,40.71053],[-73.92155,40.71103],[-73.92222,40.71287],[-73.92405,40.71413],[-73.9241,40.71514],[-73.92233,40.71606],[-73.92277,40.71753],[-73.92394,40.71904],[-73.92427,40.72143],[-73.92516,40.72235],[-73.92449,40.72357],[-73.92038,40.72369],[-73.92005,40.72273],[-73.91655,40.72201],[-73.91255,40.72323],[-73.90516,40.72897],[-73.90061,40.73447],[-73.89833,40.73518],[-73.89511,40.73501],[-73.89233,40.73447],[-73.88911,40.73459],[-73.88772,40.7343]]]},"properties":{"cd":405,"name":"Ridgewood and Maspeth (CD5)","pm25":6.72,"no2":15.01}},{"type":"Feature","geometry":{"type":"Polygon","coordinates":[[[-73.826,40.71543],[-73.8315,40.71401],[-73.83589,40.71166],[-73.84134,40.70994],[-73.84456,40.70868],[-73.84667,40.7083],[-73.8495,40.70835],[-73.85472,40.70675],[-73.85472,40.7052],[-73.8525,40.70231],[-73.85528,40.7026],[-73.85595,40.70398],[-73.85817,40.70554],[-73.85928,40.70751],[-73.85978,40.71145],[-73.85967,40.71401],[-73.86006,40.71493],[-73.86522,40.71996],[-73.86928,40.72445],[-73.87094,40.72772],[-73.87144,40.72931],[-73.87511,40.73065],[-73.86444,40.73401],[-73.85661,40.73631],[-73.85245,40.73719],[-73.84995,40.73795],[-73.8475,40.739],[-73.84545,40.73786],[-73.84428,40.73422],[-73.84284,40.73208],[-73.84056,40.72986],[-73.83923,40.72814],[-73.837,40.72407],[-73.83556,40.72197],[-73.83234,40.71832],[-73.83045,40.71698],[-73.82712,40.71602],[-73.826,40.71543]]]},"properties":{"cd":406,"name":"Rego Park and Forest Hills (CD6)","pm25":6.19,"no2":15.12}},{"type":"Feature","geometry":{"type":"MultiPolygon","coordinates":[[[[-73.83973,40.76529],[-73.84061,40.76403],[-73.842,40.76365],[-73.84234,40.76483],[-73.83973,40.76529]]],[[[-73.83973,40.76529],[-73.84034,40.76629],[-73.84395,40.7655],[-73.84528,40.76566],[-73.84778,40.76675],[-73.849,40.76914],[-73.84861,40.77061],[-73.84995,40.77204],[-73.84895,40.77376],[-73.84922,40.77455],[-73.84895,40.77791],[-73.84978,40.77875],[-73.8495,40.78005],[-73.84989,40.78109],[-73.84928,40.78227],[-73.85022,40.78244],[-73.85539,40.78206],[-73.85545,40.78315],[-73.85806,40.78374],[-73.858,40.78466],[-73.85911,40.78567],[-73.85811,40.78705],[-73.857,40.78663],[-73.85478,40.7886],[-73.85445,40.79028],[-73.85267,40.79124],[-73.85372,40.79229],[-73.85356,40.79414],[-73.85278,40.79439],[-73.84934,40.79338],[-73.84872,40.79544],[-73.84622,40.79615],[-73.8445,40.79489],[-73.84189,40.7956],[-73.84061,40.79682],[-73.83839,40.79673],[-73.83661,40.7925],[-73.8375,40.79103],[-73.83723,40.78961],[-73.83556,40.78952],[-73.83378,40.78852],[-73.83212,40.78877],[-73.83173,40.79099],[-73.83062,40.79166],[-73.82912,40.79191],[-73.82778,40.7933],[-73.828,40.79493],[-73.82912,40.79632],[-73.82612,40.79728],[-73.82523,40.79728],[-73.82256,40.79896],[-73.82101,40.80047],[-73.81984,40.8008],[-73.81595,40.7985],[-73.8129,40.7972],[-73.81184,40.79745],[-73.80462,40.79615],[-73.80351,40.79648],[-73.80067,40.79636],[-73.79856,40.7959],[-73.79618,40.79502],[-73.79462,40.79493],[-73.79429,40.79405],[-73.79495,40.79191],[-73.79379,40.7891],[-73.79268,40.78877],[-73.79029,40.79032],[-73.78568,40.79036],[-73.78384,40.79065],[-73.78107,40.79166],[-73.78068,40.79363],[-73.78179,40.79481],[-73.78157,40.79564],[-73.77829,40.79673],[-73.77618,40.79611],[-73.77401,40.79401],[-73.77362,40.79275],[-73.77234,40.79154],[-73.77212,40.79011],[-73.77062,40.78847],[-73.77173,40.78747],[-73.77379,40.78684],[-73.77407,40.78592],[-73.77162,40.78298],[-73.77062,40.78206],[-73.77562,40.77933],[-73.77679,40.77841],[-73.78657,40.77556],[-73.79162,40.77422],[-73.79273,40.7738],[-73.79218,40.77099],[-73.79345,40.7616],[-73.79345,40.76076],[-73.7924,40.75309],[-73.79456,40.75355],[-73.79484,40.74843],[-73.79445,40.74545],[-73.79523,40.74348],[-73.79723,40.74168],[-73.79729,40.74034],[-73.7964,40.73828],[-73.79823,40.73816],[-73.81323,40.7387],[-73.81595,40.73912],[-73.82539,40.74223],[-73.82484,40.73963],[-73.827,40.73858],[-73.82795,40.73849],[-73.82812,40.73707],[-73.82945,40.73703],[-73.83056,40.73753],[-73.83128,40.73954],[-73.83162,40.74239],[-73.83584,40.74323],[-73.83589,40.74344],[-73.83545,40.74554],[-73.83467,40.74688],[-73.83506,40.75015],[-73.838,40.75451],[-73.84067,40.75359],[-73.84045,40.75627],[-73.84323,40.75535],[-73.84584,40.76046],[-73.84372,40.76172],[-73.84106,40.76227],[-73.83928,40.76189],[-73.84,40.76424],[-73.83973,40.76529]]]]},"properties":{"cd":407,"name":"Flushing and Whitestone (CD7)","pm25":6.3,"no2":14.49}},{"type":"Feature","geometry":{"type":"Polygon","coordinates":[[[-73.75668,40.72625],[-73.75407,40.7247],[-73.75946,40.72105],[-73.76446,40.71887],[-73.76735,40.71728],[-73.77357,40.71514],[-73.78701,40.71191],[-73.78856,40.71233],[-73.79473,40.71002],[-73.81445,40.7044],[-73.81712,40.70403],[-73.81812,40.70596],[-73.82028,40.70952],[-73.82384,40.71296],[-73.82545,40.71556],[-73.82612,40.71728],[-73.82634,40.72067],[-73.82767,40.7229],[-73.82923,40.72445],[-73.83145,40.72596],[-73.83234,40.72696],[-73.83584,40.73363],[-73.83634,40.73501],[-73.83673,40.73862],[-73.83756,40.74147],[-73.83767,40.74332],[-73.83589,40.74344],[-73.83584,40.74323],[-73.83162,40.74239],[-73.83128,40.73954],[-73.83056,40.73753],[-73.82945,40.73703],[-73.82812,40.73707],[-73.82795,40.73849],[-73.827,40.73858],[-73.82484,40.73963],[-73.82539,40.74223],[-73.81595,40.73912],[-73.81323,40.7387],[-73.79823,40.73816],[-73.7964,40.73828],[-73.79534,40.73849],[-73.78034,40.7426],[-73.77362,40.74365],[-73.7714,40.74424],[-73.76773,40.74579],[-73.76696,40.74424],[-73.76557,40.74327],[-73.76251,40.7369],[-73.76251,40.73472],[-73.76473,40.73409],[-73.76368,40.73287],[-73.76562,40.73254],[-73.76435,40.73116],[-73.76162,40.72906],[-73.75785,40.72709],[-73.75668,40.72625]]]},"properties":{"cd":408,"name":"Hillcrest and Fresh Meadows (CD8)","pm25":6.06,"no2":14.15}},{"type":"Feature","geometry":{"type":"Polygon","coordinates":[[[-73.81712,40.70403],[-73.81551,40.70059],[-73.81406,40.6979],[-73.81062,40.69195],[-73.81356,40.6912],[-73.8445,40.68243],[-73.854,40.67966],[-73.86233,40.67916],[-73.86328,40.67908],[-73.86411,40.68239],[-73.866,40.68193],[-73.86661,40.68528],[-73.86744,40.68839],[-73.86861,40.69388],[-73.86839,40.69472],[-73.85656,40.69707],[-73.85272,40.69757],[-73.85283,40.69841],[-73.8545,40.70055],[-73.85072,40.70021],[-73.84911,40.69828],[-73.845,40.69937],[-73.84156,40.70109],[-73.8395,40.70268],[-73.83695,40.70419],[-73.83806,40.70596],[-73.83717,40.70797],[-73.83828,40.70843],[-73.8375,40.70956],[-73.83634,40.70885],[-73.83406,40.71002],[-73.83589,40.71166],[-73.8315,40.71401],[-73.826,40.71543],[-73.82545,40.71556],[-73.82384,40.71296],[-73.82028,40.70952],[-73.81812,40.70596],[-73.81712,40.70403]]]},"properties":{"cd":409,"name":"Kew Gardens and Woodhaven (CD9)","pm25":6.23,"no2":14.65}},{"type":"Feature","geometry":{"type":"Polygon","coordinates":[[[-73.80167,40.66633],[-73.80201,40.66524],[-73.80612,40.66482],[-73.8074,40.66067],[-73.8079,40.66054],[-73.81201,40.66147],[-73.81178,40.66293],[-73.81495,40.66247],[-73.81789,40.66298],[-73.82306,40.66356],[-73.82584,40.6634],[-73.8295,40.66381],[-73.8325,40.66499],[-73.82989,40.65966],[-73.82862,40.65719],[-73.82689,40.65035],[-73.82928,40.65006],[-73.83095,40.65161],[-73.83156,40.65115],[-73.83112,40.65006],[-73.83595,40.64935],[-73.83845,40.65937],[-73.83889,40.66138],[-73.84,40.66189],[-73.83895,40.65757],[-73.83839,40.65581],[-73.83684,40.64926],[-73.83739,40.64914],[-73.83634,40.64532],[-73.83861,40.64537],[-73.84578,40.64411],[-73.8495,40.64415],[-73.85206,40.64616],[-73.85239,40.6475],[-73.85056,40.65035],[-73.84922,40.65115],[-73.85078,40.65153],[-73.8525,40.65056],[-73.85389,40.65065],[-73.85589,40.65128],[-73.85689,40.65295],[-73.8585,40.65333],[-73.85933,40.65493],[-73.86083,40.65618],[-73.85983,40.65732],[-73.85961,40.65845],[-73.86117,40.65882],[-73.86033,40.65723],[-73.86161,40.65698],[-73.86272,40.65761],[-73.86317,40.65828],[-73.86028,40.65962],[-73.85761,40.66012],[-73.85845,40.66344],[-73.85567,40.66386],[-73.85761,40.67166],[-73.86039,40.67124],[-73.86233,40.67916],[-73.854,40.67966],[-73.8445,40.68243],[-73.81356,40.6912],[-73.81062,40.69195],[-73.80734,40.68612],[-73.80167,40.67438],[-73.80117,40.6722],[-73.80117,40.6691],[-73.80167,40.66633]]]},"properties":{"cd":410,"name":"South Ozone Park and Howard Beach (CD10)","pm25":5.99,"no2":13.52}},{"type":"Feature","geometry":{"type":"Polygon","coordinates":[[[-73.71352,40.75984],[-73.71613,40.75967],[-73.71768,40.75929],[-73.71957,40.75845],[-73.72096,40.75728],[-73.72241,40.75493],[-73.72385,40.75346],[-73.72707,40.75132],[-73.72824,40.74969],[-73.72907,40.74738],[-73.73107,40.74491],[-73.73435,40.74235],[-73.73818,40.74038],[-73.73935,40.73946],[-73.74146,40.73694],[-73.74296,40.73547],[-73.74674,40.7325],[-73.74979,40.72973],[-73.75185,40.72835],[-73.7544,40.72705],[-73.75668,40.72625],[-73.75785,40.72709],[-73.76162,40.72906],[-73.76435,40.73116],[-73.76562,40.73254],[-73.76368,40.73287],[-73.76473,40.73409],[-73.76251,40.73472],[-73.76251,40.7369],[-73.76557,40.74327],[-73.76696,40.74424],[-73.76773,40.74579],[-73.7714,40.74424],[-73.77362,40.74365],[-73.78034,40.7426],[-73.79534,40.73849],[-73.7964,40.73828],[-73.79729,40.74034],[-73.79723,40.74168],[-73.79523,40.74348],[-73.79445,40.74545],[-73.79484,40.74843],[-73.79456,40.75355],[-73.7924,40.75309],[-73.79345,40.76076],[-73.79345,40.7616],[-73.79218,40.77099],[-73.79273,40.7738],[-73.79162,40.77422],[-73.78657,40.77556],[-73.77679,40.77841],[-73.77562,40.77933],[-73.77062,40.78206],[-73.76818,40.77942],[-73.76701,40.77669],[-73.76573,40.7746],[-73.76418,40.77283],[-73.75879,40.76818],[-73.75862,40.76734],[-73.75496,40.76608],[-73.75507,40.76768],[-73.75468,40.76969],[-73.75557,40.77153],[-73.7544,40.77204],[-73.75335,40.77321],[-73.75424,40.77527],[-73.75512,40.7764],[-73.7539,40.77979],[-73.75301,40.7813],[-73.75185,40.78235],[-73.75018,40.78239],[-73.74685,40.77887],[-73.7454,40.779],[-73.74401,40.77858],[-73.73768,40.77481],[-73.72152,40.76483],[-73.72096,40.76474],[-73.71352,40.75984]]]},"properties":{"cd":411,"name":"Bayside and Little Neck (CD11)","pm25":6.08,"no2":13.84}},{"type":"Feature","geometry":{"type":"Polygon","coordinates":[[[-73.80167,40.66633],[-73.80117,40.6691],[-73.80117,40.6722],[-73.80167,40.67438],[-73.80734,40.68612],[-73.81062,40.69195],[-73.81406,40.6979],[-73.81551,40.70059],[-73.81712,40.70403],[-73.81445,40.7044],[-73.79473,40.71002],[-73.78856,40.71233],[-73.78701,40.71191],[-73.77357,40.71514],[-73.76735,40.71728],[-73.76446,40.71887],[-73.75946,40.72105],[-73.75374,40.71333],[-73.75124,40.7073],[-73.74485,40.69312],[-73.74857,40.6878],[-73.75007,40.68591],[-73.75224,40.68151],[-73.75485,40.67795],[-73.75579,40.67576],[-73.75646,40.67149],[-73.75646,40.66969],[-73.75701,40.66776],[-73.75796,40.66595],[-73.77018,40.66729],[-73.77446,40.66746],[-73.7824,40.66704],[-73.79001,40.66633],[-73.7959,40.66616],[-73.80167,40.66633]]]},"properties":{"cd":412,"name":"Jamaica and Hollis (CD12)","pm25":6.14,"no2":13.44}},{"type":"Feature","geometry":{"type":"Polygon","coordinates":[[[-73.80201,40.66524],[-73.80167,40.66633],[-73.7959,40.66616],[-73.79001,40.66633],[-73.7824,40.66704],[-73.77446,40.66746],[-73.77018,40.66729],[-73.75796,40.66595],[-73.75701,40.66776],[-73.75646,40.66969],[-73.75646,40.67149],[-73.75579,40.67576],[-73.75485,40.67795],[-73.75224,40.68151],[-73.75007,40.68591],[-73.74857,40.6878],[-73.74485,40.69312],[-73.75124,40.7073],[-73.75374,40.71333],[-73.75946,40.72105],[-73.75407,40.7247],[-73.75668,40.72625],[-73.7544,40.72705],[-73.75185,40.72835],[-73.74979,40.72973],[-73.74674,40.7325],[-73.74296,40.73547],[-73.74146,40.73694],[-73.73935,40.73946],[-73.73818,40.74038],[-73.73435,40.74235],[-73.73107,40.74491],[-73.72907,40.74738],[-73.72824,40.74969],[-73.72707,40.75132],[-73.72385,40.75346],[-73.72241,40.75493],[-73.72096,40.75728],[-73.71957,40.75845],[-73.71768,40.75929],[-73.71613,40.75967],[-73.71352,40.75984],[-73.70785,40.75623],[-73.70163,40.7525],[-73.70091,40.74705],[-73.70058,40.74319],[-73.70002,40.73925],[-73.7008,40.73845],[-73.70769,40.72784],[-73.71052,40.72721],[-73.71691,40.72638],[-73.72568,40.72403],[-73.73035,40.72214],[-73.72918,40.71916],[-73.72696,40.71074],[-73.72707,40.70952],[-73.72663,40.70113],[-73.72618,40.68847],[-73.72579,40.68436],[-73.72591,40.68264],[-73.72563,40.67958],[-73.72624,40.67723],[-73.72757,40.67417],[-73.72829,40.66641],[-73.72785,40.66507],[-73.72791,40.66176],[-73.72646,40.65916],[-73.72557,40.65673],[-73.72496,40.65425],[-73.72524,40.65199],[-73.73029,40.65035],[-73.73513,40.64973],[-73.73907,40.64822],[-73.74146,40.64687],[-73.74168,40.64218],[-73.74207,40.64147],[-73.7414,40.6405],[-73.74229,40.64012],[-73.74124,40.63891],[-73.73946,40.63572],[-73.74074,40.63509],[-73.74257,40.63526],[-73.74096,40.63731],[-73.74274,40.63828],[-73.74424,40.63803],[-73.7449,40.63719],[-73.74624,40.63643],[-73.74679,40.63786],[-73.74463,40.63945],[-73.74401,40.64126],[-73.74746,40.64474],[-73.74857,40.64553],[-73.76407,40.65434],[-73.76668,40.65581],[-73.76896,40.65568],[-73.77029,40.65623],[-73.77446,40.65891],[-73.77629,40.65983],[-73.77896,40.66063],[-73.78501,40.66344],[-73.79584,40.66495],[-73.79984,40.66524],[-73.80201,40.66524]]]},"properties":{"cd":413,"name":"Queens Village (CD13)","pm25":6.1,"no2":12.55}},{"type":"Feature","geometry":{"type":"MultiPolygon","coordinates":[[[[-73.91194,40.56582],[-73.91144,40.56511],[-73.91016,40.56494],[-73.91066,40.56381],[-73.90949,40.56075],[-73.90927,40.55702],[-73.90877,40.55484],[-73.91627,40.55199],[-73.91949,40.55064],[-73.92644,40.54817],[-73.93116,40.55702],[-73.93221,40.55769],[-73.92616,40.56155],[-73.92327,40.56209],[-73.9211,40.56209],[-73.91766,40.56285],[-73.91522,40.5641],[-73.91194,40.56511],[-73.91194,40.56582]]],[[[-73.8905,40.56817],[-73.88961,40.56796],[-73.88655,40.56846],[-73.88539,40.56687],[-73.89455,40.56427],[-73.89544,40.56687],[-73.89316,40.56838],[-73.8905,40.56817]]],[[[-73.76668,40.61425],[-73.76518,40.61375],[-73.76507,40.61207],[-73.76229,40.61136],[-73.76173,40.61186],[-73.75946,40.61035],[-73.75646,40.61019],[-73.75346,40.61052],[-73.75007,40.61165],[-73.74724,40.6122],[-73.74574,40.61199],[-73.74313,40.60771],[-73.7434,40.60746],[-73.74029,40.60461],[-73.73918,40.60402],[-73.73824,40.60255],[-73.73835,40.59761],[-73.73885,40.59677],[-73.73802,40.59455],[-73.73996,40.5945],[-73.7429,40.59484],[-73.74668,40.59429],[-73.74913,40.5932],[-73.75168,40.59132],[-73.7534,40.59098],[-73.7559,40.59086],[-73.7579,40.59136],[-73.76135,40.59174],[-73.76273,40.59161],[-73.76812,40.59073],[-73.77734,40.5901],[-73.78057,40.58956],[-73.78451,40.58847],[-73.79668,40.58637],[-73.80062,40.58549],[-73.80373,40.58503],[-73.80806,40.58398],[-73.81351,40.58348],[-73.81928,40.58176],[-73.82228,40.58109],[-73.82495,40.58012],[-73.82956,40.57878],[-73.83389,40.57765],[-73.83778,40.57593],[-73.84617,40.57303],[-73.85222,40.57073],[-73.85722,40.56909],[-73.86289,40.56683],[-73.86433,40.56737],[-73.86533,40.5688],[-73.86444,40.56914],[-73.86667,40.57299],[-73.86333,40.57404],[-73.864,40.57505],[-73.86289,40.57605],[-73.85306,40.58125],[-73.85045,40.58213],[-73.84861,40.58218],[-73.84522,40.58159],[-73.83928,40.58188],[-73.83867,40.58272],[-73.83584,40.58289],[-73.8285,40.58486],[-73.82784,40.58612],[-73.82328,40.58746],[-73.82145,40.58679],[-73.81884,40.58826],[-73.81084,40.59207],[-73.8099,40.59228],[-73.80901,40.59333],[-73.8069,40.59228],[-73.80434,40.59132],[-73.80417,40.59186],[-73.80806,40.59366],[-73.80712,40.59526],[-73.80601,40.59555],[-73.80462,40.59492],[-73.80395,40.59312],[-73.80245,40.59266],[-73.80256,40.59438],[-73.80312,40.59455],[-73.80512,40.59714],[-73.8029,40.59886],[-73.80123,40.59912],[-73.79434,40.59945],[-73.79156,40.60037],[-73.78784,40.6031],[-73.78651,40.60327],[-73.78768,40.60134],[-73.79034,40.5992],[-73.79123,40.59664],[-73.79084,40.59501],[-73.78918,40.59517],[-73.78918,40.5979],[-73.78601,40.60029],[-73.78529,40.60159],[-73.78351,40.60255],[-73.78312,40.6036],[-73.78395,40.60486],[-73.78101,40.60792],[-73.77857,40.60964],[-73.77696,40.60985],[-73.7749,40.60951],[-73.77418,40.60863],[-73.7749,40.60524],[-73.77646,40.60247],[-73.77829,40.60037],[-73.7799,40.60075],[-73.78201,40.59899],[-73.78134,40.59777],[-73.78018,40.59723],[-73.7774,40.59882],[-73.77629,40.60109],[-73.77496,40.60176],[-73.77412,40.59962],[-73.77423,40.59899],[-73.77301,40.5979],[-73.7689,40.5984],[-73.77118,40.59949],[-73.77096,40.60117],[-73.77018,40.60276],[-73.77051,40.6049],[-73.76985,40.6062],[-73.76979,40.60788],[-73.76912,40.6096],[-73.77123,40.6104],[-73.77212,40.61144],[-73.77379,40.61128],[-73.77384,40.61287],[-73.77346,40.61362],[-73.77184,40.61396],[-73.76668,40.61425]]],[[[-73.82017,40.61518],[-73.81751,40.61421],[-73.81556,40.61429],[-73.81601,40.61237],[-73.81478,40.60884],[-73.81523,40.60704],[-73.81645,40.60524],[-73.81739,40.60515],[-73.81723,40.60394],[-73.81828,40.60134],[-73.81851,40.59941],[-73.81928,40.59752],[-73.82017,40.59689],[-73.82123,40.59471],[-73.82412,40.59463],[-73.8255,40.59509],[-73.82723,40.59475],[-73.83323,40.59421],[-73.83473,40.59505],[-73.83423,40.59664],[-73.83239,40.59782],[-73.83078,40.59744],[-73.8295,40.59815],[-73.82806,40.59769],[-73.82606,40.59945],[-73.82562,40.59861],[-73.82428,40.59836],[-73.82378,40.60004],[-73.82445,40.60033],[-73.82295,40.6026],[-73.82289,40.60587],[-73.82128,40.60712],[-73.82001,40.60893],[-73.81962,40.61048],[-73.82051,40.61195],[-73.82128,40.61132],[-73.82051,40.61023],[-73.82139,40.60855],[-73.82212,40.61014],[-73.82289,40.61035],[-73.82401,40.61161],[-73.82401,40.61253],[-73.82139,40.61505],[-73.82017,40.61518]]]]},"properties":{"cd":414,"name":"Rockaway and Broad Channel (CD14)","pm25":5.77,"no2":10.3}},{"type":"Feature","geometry":{"type":"MultiPolygon","coordinates":[[[[-74.15946,40.64147],[-74.16113,40.64184],[-74.16152,40.64415],[-74.15808,40.64377],[-74.15758,40.64323],[-74.15946,40.64147]]],[[[-74.06353,40.60213],[-74.06553,40.60272],[-74.07153,40.60499],[-74.07336,40.60557],[-74.07659,40.60612],[-74.08281,40.60641],[-74.08542,40.60704],[-74.09308,40.6101],[-74.09592,40.61065],[-74.10836,40.61023],[-74.11003,40.61035],[-74.11358,40.61115],[-74.11591,40.61119],[-74.11741,40.61094],[-74.12136,40.60977],[-74.12652,40.60868],[-74.13091,40.60821],[-74.14286,40.60759],[-74.14552,40.60771],[-74.14724,40.60813],[-74.1503,40.6096],[-74.15791,40.61547],[-74.16163,40.61794],[-74.16485,40.61958],[-74.16807,40.62092],[-74.17324,40.62184],[-74.17607,40.62339],[-74.17913,40.62608],[-74.18368,40.62872],[-74.19035,40.63174],[-74.19613,40.6348],[-74.19374,40.63757],[-74.18652,40.64339],[-74.18296,40.64478],[-74.17935,40.6444],[-74.17935,40.64323],[-74.1788,40.64251],[-74.17668,40.64339],[-74.17546,40.64348],[-74.17568,40.64457],[-74.17413,40.64507],[-74.17296,40.64423],[-74.17246,40.64285],[-74.17152,40.64176],[-74.16907,40.64214],[-74.16563,40.64121],[-74.16346,40.63987],[-74.16324,40.64096],[-74.16169,40.64063],[-74.1623,40.63878],[-74.15791,40.63799],[-74.1548,40.63773],[-74.15424,40.63719],[-74.15269,40.63765],[-74.1498,40.6379],[-74.1488,40.63887],[-74.14486,40.63937],[-74.14397,40.63887],[-74.1423,40.64029],[-74.13436,40.64188],[-74.13108,40.64105],[-74.1293,40.64033],[-74.12636,40.64038],[-74.12414,40.64012],[-74.12147,40.64151],[-74.12069,40.64105],[-74.11952,40.64147],[-74.11769,40.64155],[-74.1133,40.64373],[-74.11114,40.64511],[-74.10886,40.64557],[-74.10308,40.64566],[-74.10014,40.64507],[-74.09853,40.64537],[-74.09469,40.64557],[-74.08942,40.64729],[-74.0877,40.64822],[-74.08486,40.64889],[-74.08214,40.64826],[-74.08142,40.64851],[-74.07897,40.64813],[-74.07653,40.64696],[-74.07447,40.64507],[-74.07203,40.6444],[-74.07148,40.64281],[-74.07325,40.64218],[-74.07309,40.63861],[-74.07353,40.63765],[-74.07292,40.63362],[-74.07331,40.63207],[-74.07297,40.63031],[-74.06803,40.6288],[-74.06814,40.62855],[-74.07292,40.62998],[-74.07231,40.62713],[-74.0727,40.62687],[-74.07225,40.62461],[-74.06998,40.62142],[-74.0662,40.61874],[-74.06509,40.61752],[-74.06359,40.61643],[-74.06142,40.61438],[-74.06031,40.6119],[-74.05948,40.61165],[-74.05909,40.61065],[-74.05714,40.60876],[-74.05675,40.60788],[-74.0652,40.60423],[-74.06353,40.60213]]]]},"properties":{"cd":501,"name":"St. George and Stapleton (CD1)","pm25":5.95,"no2":13.39}},{"type":"Feature","geometry":{"type":"Polygon","coordinates":[[[-74.19613,40.6348],[-74.19035,40.63174],[-74.18368,40.62872],[-74.17913,40.62608],[-74.17607,40.62339],[-74.17324,40.62184],[-74.16807,40.62092],[-74.16485,40.61958],[-74.16163,40.61794],[-74.15791,40.61547],[-74.1503,40.6096],[-74.14724,40.60813],[-74.14552,40.60771],[-74.14286,40.60759],[-74.13091,40.60821],[-74.12652,40.60868],[-74.12136,40.60977],[-74.11741,40.61094],[-74.11591,40.61119],[-74.11358,40.61115],[-74.11003,40.61035],[-74.10836,40.61023],[-74.09592,40.61065],[-74.09308,40.6101],[-74.08542,40.60704],[-74.08281,40.60641],[-74.07659,40.60612],[-74.07336,40.60557],[-74.07153,40.60499],[-74.06553,40.60272],[-74.06353,40.60213],[-74.06214,40.60184],[-74.06109,40.59983],[-74.06375,40.59895],[-74.06059,40.59492],[-74.06181,40.59421],[-74.06664,40.59035],[-74.06931,40.58771],[-74.07142,40.58507],[-74.07259,40.58423],[-74.07525,40.5815],[-74.07914,40.57807],[-74.08875,40.57236],[-74.09275,40.56809],[-74.09386,40.56842],[-74.10469,40.574],[-74.10525,40.57308],[-74.10308,40.57194],[-74.10392,40.57031],[-74.10575,40.56976],[-74.10658,40.56876],[-74.09764,40.56448],[-74.10175,40.55991],[-74.11014,40.56431],[-74.11214,40.56549],[-74.1143,40.56268],[-74.12308,40.56796],[-74.12491,40.56897],[-74.12308,40.57018],[-74.12147,40.57178],[-74.12175,40.57492],[-74.12291,40.57563],[-74.12514,40.57589],[-74.12708,40.57639],[-74.12775,40.57522],[-74.1328,40.5735],[-74.1338,40.57329],[-74.1458,40.57186],[-74.14724,40.57144],[-74.15013,40.57127],[-74.16258,40.56675],[-74.16441,40.56561],[-74.16502,40.56146],[-74.16591,40.56029],[-74.17185,40.5615],[-74.17491,40.56285],[-74.17757,40.56377],[-74.17907,40.56989],[-74.17935,40.57056],[-74.18313,40.57228],[-74.18474,40.57173],[-74.18607,40.57253],[-74.18818,40.57475],[-74.18902,40.57387],[-74.18918,40.57094],[-74.19024,40.57106],[-74.18991,40.57329],[-74.19046,40.57668],[-74.19179,40.57664],[-74.19752,40.57886],[-74.20296,40.58012],[-74.2044,40.58016],[-74.20601,40.57974],[-74.20507,40.58167],[-74.2044,40.58373],[-74.20463,40.58436],[-74.20418,40.58641],[-74.20463,40.5893],[-74.20246,40.59086],[-74.2009,40.59287],[-74.19974,40.59358],[-74.19752,40.59681],[-74.19729,40.59803],[-74.19874,40.60172],[-74.20013,40.60369],[-74.2014,40.60465],[-74.20224,40.60595],[-74.20279,40.60826],[-74.20229,40.61186],[-74.20246,40.61329],[-74.20046,40.61631],[-74.2009,40.61782],[-74.20035,40.61828],[-74.20101,40.62008],[-74.20157,40.62348],[-74.20096,40.62536],[-74.2014,40.62608],[-74.20096,40.62935],[-74.20046,40.62964],[-74.20013,40.63149],[-74.19852,40.63279],[-74.19735,40.633],[-74.19613,40.6348]]]},"properties":{"cd":502,"name":"South Beach and Willowbrook (CD2)","pm25":5.83,"no2":11.5}},{"type":"Feature","geometry":{"type":"Polygon","coordinates":[[[-74.10175,40.55991],[-74.1028,40.55869],[-74.10575,40.55618],[-74.10647,40.5553],[-74.10997,40.55253],[-74.11164,40.55039],[-74.11253,40.54985],[-74.11369,40.55094],[-74.11675,40.54901],[-74.11958,40.55165],[-74.11947,40.55224],[-74.1273,40.55731],[-74.13041,40.55442],[-74.13458,40.55127],[-74.13769,40.54939],[-74.13863,40.54851],[-74.13747,40.54729],[-74.13586,40.54645],[-74.13874,40.5449],[-74.14013,40.54352],[-74.14219,40.54196],[-74.14247,40.54134],[-74.1418,40.54008],[-74.14174,40.53853],[-74.14308,40.53723],[-74.14386,40.53714],[-74.14474,40.5358],[-74.14541,40.53584],[-74.14797,40.53492],[-74.1498,40.53387],[-74.14974,40.53349],[-74.15247,40.53207],[-74.15613,40.5293],[-74.15891,40.52792],[-74.16146,40.52708],[-74.16224,40.5272],[-74.16691,40.52481],[-74.17002,40.52305],[-74.17135,40.52347],[-74.17341,40.52255],[-74.17602,40.52087],[-74.17763,40.51932],[-74.1798,40.52054],[-74.18118,40.52066],[-74.18485,40.51932],[-74.18657,40.51811],[-74.18974,40.51534],[-74.19346,40.51156],[-74.19524,40.50997],[-74.19679,40.51005],[-74.19874,40.51123],[-74.19968,40.51144],[-74.20013,40.51295],[-74.20085,40.51303],[-74.20757,40.51186],[-74.21001,40.51056],[-74.21185,40.50825],[-74.2134,40.50678],[-74.21579,40.50548],[-74.21751,40.50339],[-74.21962,40.5028],[-74.22285,40.50251],[-74.22523,40.50179],[-74.22718,40.5023],[-74.23123,40.50184],[-74.23362,40.50091],[-74.23534,40.50058],[-74.23851,40.4989],[-74.23968,40.49769],[-74.24468,40.49743],[-74.24679,40.49613],[-74.24973,40.49689],[-74.25084,40.49802],[-74.25112,40.49894],[-74.25262,40.49966],[-74.2534,40.50049],[-74.25523,40.50393],[-74.25545,40.50804],[-74.25334,40.50985],[-74.25306,40.51215],[-74.25218,40.51278],[-74.25212,40.5137],[-74.24984,40.51551],[-74.24851,40.51622],[-74.24751,40.51572],[-74.24523,40.51731],[-74.24434,40.51852],[-74.24234,40.51832],[-74.24001,40.52033],[-74.24295,40.52121],[-74.24262,40.52205],[-74.24279,40.52402],[-74.2434,40.52486],[-74.24334,40.52586],[-74.24223,40.5298],[-74.24157,40.53089],[-74.24223,40.53458],[-74.24495,40.53723],[-74.24445,40.53802],[-74.2454,40.53953],[-74.24545,40.54062],[-74.24645,40.54217],[-74.24768,40.54314],[-74.24612,40.5457],[-74.24362,40.54767],[-74.24179,40.547],[-74.24045,40.54762],[-74.23651,40.55043],[-74.23634,40.55236],[-74.2349,40.55299],[-74.23351,40.55245],[-74.23268,40.55291],[-74.23062,40.55559],[-74.22873,40.5563],[-74.22607,40.55622],[-74.22146,40.55538],[-74.21973,40.55463],[-74.21607,40.55555],[-74.21379,40.55639],[-74.21268,40.55727],[-74.21201,40.5584],[-74.2119,40.55962],[-74.21124,40.56037],[-74.21112,40.56192],[-74.2114,40.56347],[-74.21074,40.56524],[-74.20885,40.56893],[-74.20818,40.57073],[-74.20785,40.57262],[-74.20707,40.57475],[-74.20701,40.57639],[-74.2059,40.57861],[-74.20601,40.57974],[-74.2044,40.58016],[-74.20296,40.58012],[-74.19752,40.57886],[-74.19179,40.57664],[-74.19046,40.57668],[-74.18991,40.57329],[-74.19024,40.57106],[-74.18918,40.57094],[-74.18902,40.57387],[-74.18818,40.57475],[-74.18607,40.57253],[-74.18474,40.57173],[-74.18313,40.57228],[-74.17935,40.57056],[-74.17907,40.56989],[-74.17757,40.56377],[-74.17491,40.56285],[-74.17185,40.5615],[-74.16591,40.56029],[-74.16502,40.56146],[-74.16441,40.56561],[-74.16258,40.56675],[-74.15013,40.57127],[-74.14724,40.57144],[-74.1458,40.57186],[-74.1338,40.57329],[-74.1328,40.5735],[-74.12775,40.57522],[-74.12708,40.57639],[-74.12514,40.57589],[-74.12291,40.57563],[-74.12175,40.57492],[-74.12147,40.57178],[-74.12308,40.57018],[-74.12491,40.56897],[-74.12308,40.56796],[-74.1143,40.56268],[-74.11214,40.56549],[-74.11014,40.56431],[-74.10175,40.55991]]]},"properties":{"cd":503,"name":"Tottenville and Great Kills (CD3)","pm25":5.69,"no2":9.78}}]}